<?xml version="1.0" encoding="UTF-8"?>
<gpx creator="https://gpx.studio" version="1.1" xmlns="http://www.topografix.com/GPX/1/1" xmlns:xsi="http://www.w3.org/2001/XMLSchema-instance" xsi:schemaLocation="http://www.topografix.com/GPX/1/1 http://www.topografix.com/GPX/1/1/gpx.xsd http://www.garmin.com/xmlschemas/GpxExtensions/v3 http://www.garmin.com/xmlschemas/GpxExtensionsv3.xsd http://www.garmin.com/xmlschemas/TrackPointExtension/v1 http://www.garmin.com/xmlschemas/TrackPointExtensionv1.xsd http://www.garmin.com/xmlschemas/PowerExtension/v1 http://www.garmin.com/xmlschemas/PowerExtensionv1.xsd http://www.topografix.com/GPX/gpx_style/0/2 http://www.topografix.com/GPX/gpx_style/0/2/gpx_style.xsd" xmlns:gpxtpx="http://www.garmin.com/xmlschemas/TrackPointExtension/v1" xmlns:gpxx="http://www.garmin.com/xmlschemas/GpxExtensions/v3" xmlns:gpxpx="http://www.garmin.com/xmlschemas/PowerExtension/v1" xmlns:gpx_style="http://www.topografix.com/GPX/gpx_style/0/2">
  <metadata>
    <name>Stelvio</name>
    <author>
      <name>gpx.studio</name>
      <link href="https://gpx.studio"/>
    </author>
  </metadata>
  <trk>
    <name>Stelvio</name>
    <trkseg>
      <trkpt lat="46.611905" lon="10.580504">
        <ele>945.66</ele>
      </trkpt>
      <trkpt lat="46.611194" lon="10.579357">
        <ele>955.1</ele>
      </trkpt>
      <trkpt lat="46.611097" lon="10.579063">
        <ele>957.27</ele>
      </trkpt>
      <trkpt lat="46.610779" lon="10.576961">
        <ele>956.56</ele>
      </trkpt>
      <trkpt lat="46.610364" lon="10.575143">
        <ele>966.61</ele>
      </trkpt>
      <trkpt lat="46.610177" lon="10.57449">
        <ele>967.96</ele>
      </trkpt>
      <trkpt lat="46.609824" lon="10.573545">
        <ele>981.97</ele>
      </trkpt>
      <trkpt lat="46.60956" lon="10.573049">
        <ele>980.35</ele>
      </trkpt>
      <trkpt lat="46.608598" lon="10.571488">
        <ele>987.21</ele>
      </trkpt>
      <trkpt lat="46.608413" lon="10.571126">
        <ele>989.3</ele>
      </trkpt>
      <trkpt lat="46.608316" lon="10.570906">
        <ele>990.43</ele>
      </trkpt>
      <trkpt lat="46.60803" lon="10.570179">
        <ele>990.68</ele>
      </trkpt>
      <trkpt lat="46.607958" lon="10.570025">
        <ele>990.68</ele>
      </trkpt>
      <trkpt lat="46.607722" lon="10.56961">
        <ele>989.58</ele>
      </trkpt>
      <trkpt lat="46.607636" lon="10.569439">
        <ele>989.92</ele>
      </trkpt>
      <trkpt lat="46.607593" lon="10.569327">
        <ele>989.59</ele>
      </trkpt>
      <trkpt lat="46.607487" lon="10.568867">
        <ele>990.25</ele>
      </trkpt>
      <trkpt lat="46.607455" lon="10.568772">
        <ele>990.76</ele>
      </trkpt>
      <trkpt lat="46.607412" lon="10.56869">
        <ele>991.63</ele>
      </trkpt>
      <trkpt lat="46.607034" lon="10.568124">
        <ele>999.28</ele>
      </trkpt>
      <trkpt lat="46.60693" lon="10.567955">
        <ele>999.7</ele>
      </trkpt>
      <trkpt lat="46.606501" lon="10.567049">
        <ele>1015.34</ele>
      </trkpt>
      <trkpt lat="46.60639" lon="10.566798">
        <ele>1018.2</ele>
      </trkpt>
      <trkpt lat="46.60635" lon="10.566677">
        <ele>1019.29</ele>
      </trkpt>
      <trkpt lat="46.606314" lon="10.566489">
        <ele>1020.12</ele>
      </trkpt>
      <trkpt lat="46.606302" lon="10.566345">
        <ele>1020.01</ele>
      </trkpt>
      <trkpt lat="46.606292" lon="10.565884">
        <ele>1018.86</ele>
      </trkpt>
      <trkpt lat="46.606281" lon="10.565725">
        <ele>1019.63</ele>
      </trkpt>
      <trkpt lat="46.606248" lon="10.565447">
        <ele>1021.23</ele>
      </trkpt>
      <trkpt lat="46.606215" lon="10.565285">
        <ele>1022.37</ele>
      </trkpt>
      <trkpt lat="46.606115" lon="10.564982">
        <ele>1024.38</ele>
      </trkpt>
      <trkpt lat="46.606093" lon="10.564887">
        <ele>1024.6</ele>
      </trkpt>
      <trkpt lat="46.606058" lon="10.564454">
        <ele>1024.58</ele>
      </trkpt>
      <trkpt lat="46.606036" lon="10.564356">
        <ele>1025.22</ele>
      </trkpt>
      <trkpt lat="46.606009" lon="10.564284">
        <ele>1026.15</ele>
      </trkpt>
      <trkpt lat="46.605898" lon="10.564067">
        <ele>1028.91</ele>
      </trkpt>
      <trkpt lat="46.605851" lon="10.563941">
        <ele>1029.65</ele>
      </trkpt>
      <trkpt lat="46.605753" lon="10.563602">
        <ele>1030.36</ele>
      </trkpt>
      <trkpt lat="46.605701" lon="10.563464">
        <ele>1031.17</ele>
      </trkpt>
      <trkpt lat="46.605523" lon="10.563124">
        <ele>1036.43</ele>
      </trkpt>
      <trkpt lat="46.605321" lon="10.562703">
        <ele>1036.21</ele>
      </trkpt>
      <trkpt lat="46.605206" lon="10.562503">
        <ele>1037.21</ele>
      </trkpt>
      <trkpt lat="46.605123" lon="10.562322">
        <ele>1039.11</ele>
      </trkpt>
      <trkpt lat="46.605021" lon="10.562065">
        <ele>1040.44</ele>
      </trkpt>
      <trkpt lat="46.604962" lon="10.561871">
        <ele>1040.15</ele>
      </trkpt>
      <trkpt lat="46.604826" lon="10.561342">
        <ele>1040.55</ele>
      </trkpt>
      <trkpt lat="46.60479" lon="10.56123">
        <ele>1040.5</ele>
      </trkpt>
      <trkpt lat="46.604722" lon="10.561124">
        <ele>1041.09</ele>
      </trkpt>
      <trkpt lat="46.604638" lon="10.561041">
        <ele>1041.92</ele>
      </trkpt>
      <trkpt lat="46.604336" lon="10.560784">
        <ele>1046.87</ele>
      </trkpt>
      <trkpt lat="46.604074" lon="10.560523">
        <ele>1054.46</ele>
      </trkpt>
      <trkpt lat="46.603971" lon="10.560399">
        <ele>1056.27</ele>
      </trkpt>
      <trkpt lat="46.603797" lon="10.560131">
        <ele>1056.69</ele>
      </trkpt>
      <trkpt lat="46.603672" lon="10.559845">
        <ele>1056.96</ele>
      </trkpt>
      <trkpt lat="46.603634" lon="10.559652">
        <ele>1055.01</ele>
      </trkpt>
      <trkpt lat="46.603574" lon="10.559102">
        <ele>1048.51</ele>
      </trkpt>
      <trkpt lat="46.603542" lon="10.558912">
        <ele>1047.65</ele>
      </trkpt>
      <trkpt lat="46.603494" lon="10.558788">
        <ele>1048.04</ele>
      </trkpt>
      <trkpt lat="46.603452" lon="10.558726">
        <ele>1048.82</ele>
      </trkpt>
      <trkpt lat="46.603393" lon="10.55868">
        <ele>1050.46</ele>
      </trkpt>
      <trkpt lat="46.603156" lon="10.558581">
        <ele>1057.41</ele>
      </trkpt>
      <trkpt lat="46.602972" lon="10.558485">
        <ele>1061.24</ele>
      </trkpt>
      <trkpt lat="46.602922" lon="10.558448">
        <ele>1061.7</ele>
      </trkpt>
      <trkpt lat="46.602828" lon="10.558355">
        <ele>1062.74</ele>
      </trkpt>
      <trkpt lat="46.602757" lon="10.558263">
        <ele>1062.69</ele>
      </trkpt>
      <trkpt lat="46.602695" lon="10.558159">
        <ele>1061.75</ele>
      </trkpt>
      <trkpt lat="46.602475" lon="10.557708">
        <ele>1055.37</ele>
      </trkpt>
      <trkpt lat="46.602422" lon="10.557615">
        <ele>1053.94</ele>
      </trkpt>
      <trkpt lat="46.602336" lon="10.557523">
        <ele>1054.94</ele>
      </trkpt>
      <trkpt lat="46.602077" lon="10.557353">
        <ele>1057.18</ele>
      </trkpt>
      <trkpt lat="46.601795" lon="10.557079">
        <ele>1057.57</ele>
      </trkpt>
      <trkpt lat="46.6017" lon="10.557025">
        <ele>1058.38</ele>
      </trkpt>
      <trkpt lat="46.601199" lon="10.556958">
        <ele>1065.06</ele>
      </trkpt>
      <trkpt lat="46.601113" lon="10.55691">
        <ele>1064.58</ele>
      </trkpt>
      <trkpt lat="46.60097" lon="10.556767">
        <ele>1064.91</ele>
      </trkpt>
      <trkpt lat="46.600436" lon="10.556189">
        <ele>1070.5</ele>
      </trkpt>
      <trkpt lat="46.600352" lon="10.556121">
        <ele>1069.46</ele>
      </trkpt>
      <trkpt lat="46.600206" lon="10.556023">
        <ele>1068.54</ele>
      </trkpt>
      <trkpt lat="46.599818" lon="10.555831">
        <ele>1076.18</ele>
      </trkpt>
      <trkpt lat="46.599268" lon="10.55568">
        <ele>1087.42</ele>
      </trkpt>
      <trkpt lat="46.598739" lon="10.555488">
        <ele>1094.34</ele>
      </trkpt>
      <trkpt lat="46.597899" lon="10.555121">
        <ele>1107.75</ele>
      </trkpt>
      <trkpt lat="46.597604" lon="10.554963">
        <ele>1113.22</ele>
      </trkpt>
      <trkpt lat="46.597519" lon="10.554906">
        <ele>1114.7</ele>
      </trkpt>
      <trkpt lat="46.597454" lon="10.55485">
        <ele>1115.39</ele>
      </trkpt>
      <trkpt lat="46.597347" lon="10.554684">
        <ele>1113.88</ele>
      </trkpt>
      <trkpt lat="46.597304" lon="10.554587">
        <ele>1112.22</ele>
      </trkpt>
      <trkpt lat="46.597265" lon="10.554429">
        <ele>1108.22</ele>
      </trkpt>
      <trkpt lat="46.597254" lon="10.554263">
        <ele>1102.81</ele>
      </trkpt>
      <trkpt lat="46.597257" lon="10.553933">
        <ele>1099.47</ele>
      </trkpt>
      <trkpt lat="46.597239" lon="10.553804">
        <ele>1098.64</ele>
      </trkpt>
      <trkpt lat="46.597212" lon="10.553698">
        <ele>1098.03</ele>
      </trkpt>
      <trkpt lat="46.597181" lon="10.553615">
        <ele>1097.55</ele>
      </trkpt>
      <trkpt lat="46.597147" lon="10.553553">
        <ele>1097.18</ele>
      </trkpt>
      <trkpt lat="46.597107" lon="10.553503">
        <ele>1096.91</ele>
      </trkpt>
      <trkpt lat="46.597056" lon="10.553472">
        <ele>1096.9</ele>
      </trkpt>
      <trkpt lat="46.596815" lon="10.553368">
        <ele>1098.3</ele>
      </trkpt>
      <trkpt lat="46.596683" lon="10.553323">
        <ele>1099.34</ele>
      </trkpt>
      <trkpt lat="46.596528" lon="10.5533">
        <ele>1100.01</ele>
      </trkpt>
      <trkpt lat="46.596462" lon="10.553312">
        <ele>1099.95</ele>
      </trkpt>
      <trkpt lat="46.596213" lon="10.553412">
        <ele>1098.93</ele>
      </trkpt>
      <trkpt lat="46.596117" lon="10.553434">
        <ele>1099.3</ele>
      </trkpt>
      <trkpt lat="46.596027" lon="10.553428">
        <ele>1101.17</ele>
      </trkpt>
      <trkpt lat="46.595926" lon="10.55339">
        <ele>1104.23</ele>
      </trkpt>
      <trkpt lat="46.595835" lon="10.553331">
        <ele>1106.85</ele>
      </trkpt>
      <trkpt lat="46.595717" lon="10.553217">
        <ele>1109.45</ele>
      </trkpt>
      <trkpt lat="46.595649" lon="10.553165">
        <ele>1110.49</ele>
      </trkpt>
      <trkpt lat="46.59533" lon="10.553041">
        <ele>1113.49</ele>
      </trkpt>
      <trkpt lat="46.595076" lon="10.552915">
        <ele>1118.02</ele>
      </trkpt>
      <trkpt lat="46.594993" lon="10.552853">
        <ele>1119.41</ele>
      </trkpt>
      <trkpt lat="46.594921" lon="10.552776">
        <ele>1120.07</ele>
      </trkpt>
      <trkpt lat="46.594044" lon="10.551609">
        <ele>1118.2</ele>
      </trkpt>
      <trkpt lat="46.593849" lon="10.551389">
        <ele>1118.63</ele>
      </trkpt>
      <trkpt lat="46.59376" lon="10.551318">
        <ele>1118.52</ele>
      </trkpt>
      <trkpt lat="46.593691" lon="10.551278">
        <ele>1118.48</ele>
      </trkpt>
      <trkpt lat="46.593169" lon="10.551039">
        <ele>1121.93</ele>
      </trkpt>
      <trkpt lat="46.592757" lon="10.550865">
        <ele>1125.05</ele>
      </trkpt>
      <trkpt lat="46.592649" lon="10.550805">
        <ele>1129.59</ele>
      </trkpt>
      <trkpt lat="46.592577" lon="10.550752">
        <ele>1132.17</ele>
      </trkpt>
      <trkpt lat="46.592516" lon="10.550683">
        <ele>1133.77</ele>
      </trkpt>
      <trkpt lat="46.592459" lon="10.55057">
        <ele>1134.11</ele>
      </trkpt>
      <trkpt lat="46.592427" lon="10.550449">
        <ele>1133.12</ele>
      </trkpt>
      <trkpt lat="46.592354" lon="10.549971">
        <ele>1129.33</ele>
      </trkpt>
      <trkpt lat="46.592338" lon="10.549905">
        <ele>1130.51</ele>
      </trkpt>
      <trkpt lat="46.592286" lon="10.549759">
        <ele>1132.67</ele>
      </trkpt>
      <trkpt lat="46.592252" lon="10.549698">
        <ele>1133.3</ele>
      </trkpt>
      <trkpt lat="46.59218" lon="10.549609">
        <ele>1133.61</ele>
      </trkpt>
      <trkpt lat="46.591638" lon="10.549198">
        <ele>1131.84</ele>
      </trkpt>
      <trkpt lat="46.59151" lon="10.549115">
        <ele>1136.38</ele>
      </trkpt>
      <trkpt lat="46.591406" lon="10.549071">
        <ele>1138.68</ele>
      </trkpt>
      <trkpt lat="46.590867" lon="10.548974">
        <ele>1144.25</ele>
      </trkpt>
      <trkpt lat="46.58989" lon="10.548826">
        <ele>1150.31</ele>
      </trkpt>
      <trkpt lat="46.589769" lon="10.548782">
        <ele>1150.66</ele>
      </trkpt>
      <trkpt lat="46.589488" lon="10.548581">
        <ele>1151.23</ele>
      </trkpt>
      <trkpt lat="46.588786" lon="10.548256">
        <ele>1155.11</ele>
      </trkpt>
      <trkpt lat="46.588618" lon="10.548135">
        <ele>1157.61</ele>
      </trkpt>
      <trkpt lat="46.588452" lon="10.548001">
        <ele>1162.42</ele>
      </trkpt>
      <trkpt lat="46.588248" lon="10.547749">
        <ele>1170.01</ele>
      </trkpt>
      <trkpt lat="46.588136" lon="10.547658">
        <ele>1172.25</ele>
      </trkpt>
      <trkpt lat="46.588034" lon="10.547621">
        <ele>1172.98</ele>
      </trkpt>
      <trkpt lat="46.587863" lon="10.547576">
        <ele>1174.11</ele>
      </trkpt>
      <trkpt lat="46.587511" lon="10.547565">
        <ele>1175.4</ele>
      </trkpt>
      <trkpt lat="46.58731" lon="10.547581">
        <ele>1175.21</ele>
      </trkpt>
      <trkpt lat="46.587189" lon="10.547605">
        <ele>1174.94</ele>
      </trkpt>
      <trkpt lat="46.586838" lon="10.547775">
        <ele>1174.82</ele>
      </trkpt>
      <trkpt lat="46.58674" lon="10.547782">
        <ele>1174.73</ele>
      </trkpt>
      <trkpt lat="46.586638" lon="10.547757">
        <ele>1174.65</ele>
      </trkpt>
      <trkpt lat="46.586204" lon="10.547603">
        <ele>1172.63</ele>
      </trkpt>
      <trkpt lat="46.586017" lon="10.547547">
        <ele>1174.64</ele>
      </trkpt>
      <trkpt lat="46.585232" lon="10.547207">
        <ele>1191.88</ele>
      </trkpt>
      <trkpt lat="46.584706" lon="10.547025">
        <ele>1195.75</ele>
      </trkpt>
      <trkpt lat="46.584629" lon="10.546986">
        <ele>1195.56</ele>
      </trkpt>
      <trkpt lat="46.58454" lon="10.546907">
        <ele>1194.96</ele>
      </trkpt>
      <trkpt lat="46.583877" lon="10.546214">
        <ele>1193.81</ele>
      </trkpt>
      <trkpt lat="46.583742" lon="10.545941">
        <ele>1191.93</ele>
      </trkpt>
      <trkpt lat="46.583652" lon="10.545789">
        <ele>1196.23</ele>
      </trkpt>
      <trkpt lat="46.583256" lon="10.545288">
        <ele>1207.6</ele>
      </trkpt>
      <trkpt lat="46.582493" lon="10.544543">
        <ele>1212.02</ele>
      </trkpt>
      <trkpt lat="46.582079" lon="10.544281">
        <ele>1210.94</ele>
      </trkpt>
      <trkpt lat="46.580857" lon="10.543458">
        <ele>1226.04</ele>
      </trkpt>
      <trkpt lat="46.580336" lon="10.543137">
        <ele>1229.45</ele>
      </trkpt>
      <trkpt lat="46.580166" lon="10.543055">
        <ele>1230.64</ele>
      </trkpt>
      <trkpt lat="46.579576" lon="10.542817">
        <ele>1235.52</ele>
      </trkpt>
      <trkpt lat="46.579391" lon="10.542732">
        <ele>1237.24</ele>
      </trkpt>
      <trkpt lat="46.578963" lon="10.542461">
        <ele>1244.03</ele>
      </trkpt>
      <trkpt lat="46.578853" lon="10.542412">
        <ele>1245.08</ele>
      </trkpt>
      <trkpt lat="46.578281" lon="10.542286">
        <ele>1247.57</ele>
      </trkpt>
      <trkpt lat="46.578146" lon="10.542237">
        <ele>1249.63</ele>
      </trkpt>
      <trkpt lat="46.577471" lon="10.541887">
        <ele>1259.52</ele>
      </trkpt>
      <trkpt lat="46.577298" lon="10.54172">
        <ele>1262.57</ele>
      </trkpt>
      <trkpt lat="46.576839" lon="10.541233">
        <ele>1269.77</ele>
      </trkpt>
      <trkpt lat="46.576709" lon="10.541113">
        <ele>1270.75</ele>
      </trkpt>
      <trkpt lat="46.576382" lon="10.540866">
        <ele>1269.66</ele>
      </trkpt>
      <trkpt lat="46.575918" lon="10.540493">
        <ele>1271.01</ele>
      </trkpt>
      <trkpt lat="46.575815" lon="10.540387">
        <ele>1272.19</ele>
      </trkpt>
      <trkpt lat="46.575427" lon="10.539811">
        <ele>1274.3</ele>
      </trkpt>
      <trkpt lat="46.5752" lon="10.539463">
        <ele>1273.33</ele>
      </trkpt>
      <trkpt lat="46.575059" lon="10.539213">
        <ele>1273.3</ele>
      </trkpt>
      <trkpt lat="46.575014" lon="10.539115">
        <ele>1274.03</ele>
      </trkpt>
      <trkpt lat="46.574234" lon="10.537096">
        <ele>1280.2</ele>
      </trkpt>
      <trkpt lat="46.572977" lon="10.533945">
        <ele>1287.81</ele>
      </trkpt>
      <trkpt lat="46.572782" lon="10.533503">
        <ele>1284.48</ele>
      </trkpt>
      <trkpt lat="46.572325" lon="10.532635">
        <ele>1298.59</ele>
      </trkpt>
      <trkpt lat="46.571957" lon="10.531977">
        <ele>1296.29</ele>
      </trkpt>
      <trkpt lat="46.57159" lon="10.531301">
        <ele>1309.54</ele>
      </trkpt>
      <trkpt lat="46.571331" lon="10.530769">
        <ele>1310.38</ele>
      </trkpt>
      <trkpt lat="46.570973" lon="10.529946">
        <ele>1314.25</ele>
      </trkpt>
      <trkpt lat="46.570912" lon="10.529771">
        <ele>1317.56</ele>
      </trkpt>
      <trkpt lat="46.57062" lon="10.528709">
        <ele>1330.1</ele>
      </trkpt>
      <trkpt lat="46.570532" lon="10.528454">
        <ele>1330.2</ele>
      </trkpt>
      <trkpt lat="46.57017" lon="10.527752">
        <ele>1329.47</ele>
      </trkpt>
      <trkpt lat="46.569969" lon="10.527374">
        <ele>1342.23</ele>
      </trkpt>
      <trkpt lat="46.569863" lon="10.527154">
        <ele>1347.07</ele>
      </trkpt>
      <trkpt lat="46.569779" lon="10.526943">
        <ele>1348.88</ele>
      </trkpt>
      <trkpt lat="46.569725" lon="10.526728">
        <ele>1348.56</ele>
      </trkpt>
      <trkpt lat="46.569588" lon="10.525398">
        <ele>1354.49</ele>
      </trkpt>
      <trkpt lat="46.569503" lon="10.52501">
        <ele>1356.8</ele>
      </trkpt>
      <trkpt lat="46.56935" lon="10.524645">
        <ele>1359.07</ele>
      </trkpt>
      <trkpt lat="46.569138" lon="10.524205">
        <ele>1361.84</ele>
      </trkpt>
      <trkpt lat="46.56881" lon="10.523853">
        <ele>1364.58</ele>
      </trkpt>
      <trkpt lat="46.56823" lon="10.523495">
        <ele>1368.59</ele>
      </trkpt>
      <trkpt lat="46.567898" lon="10.52323">
        <ele>1371.24</ele>
      </trkpt>
      <trkpt lat="46.567261" lon="10.52268">
        <ele>1379.9</ele>
      </trkpt>
      <trkpt lat="46.56689" lon="10.522422">
        <ele>1378.2</ele>
      </trkpt>
      <trkpt lat="46.566864" lon="10.522362">
        <ele>1379.72</ele>
      </trkpt>
      <trkpt lat="46.566862" lon="10.52232">
        <ele>1380.04</ele>
      </trkpt>
      <trkpt lat="46.566874" lon="10.522286">
        <ele>1379.73</ele>
      </trkpt>
      <trkpt lat="46.566892" lon="10.522269">
        <ele>1379.12</ele>
      </trkpt>
      <trkpt lat="46.566918" lon="10.522265">
        <ele>1378.11</ele>
      </trkpt>
      <trkpt lat="46.566942" lon="10.522279">
        <ele>1377.95</ele>
      </trkpt>
      <trkpt lat="46.567065" lon="10.522417">
        <ele>1378.99</ele>
      </trkpt>
      <trkpt lat="46.56733" lon="10.522612">
        <ele>1379.18</ele>
      </trkpt>
      <trkpt lat="46.567435" lon="10.522718">
        <ele>1380.55</ele>
      </trkpt>
      <trkpt lat="46.567469" lon="10.522722">
        <ele>1380.56</ele>
      </trkpt>
      <trkpt lat="46.567507" lon="10.522688">
        <ele>1380.54</ele>
      </trkpt>
      <trkpt lat="46.567516" lon="10.52266">
        <ele>1380.58</ele>
      </trkpt>
      <trkpt lat="46.567511" lon="10.522608">
        <ele>1380.59</ele>
      </trkpt>
      <trkpt lat="46.567491" lon="10.522573">
        <ele>1380.95</ele>
      </trkpt>
      <trkpt lat="46.56719" lon="10.522313">
        <ele>1383.64</ele>
      </trkpt>
      <trkpt lat="46.566299" lon="10.521491">
        <ele>1394.98</ele>
      </trkpt>
      <trkpt lat="46.566207" lon="10.521383">
        <ele>1395.91</ele>
      </trkpt>
      <trkpt lat="46.566113" lon="10.521219">
        <ele>1395.88</ele>
      </trkpt>
      <trkpt lat="46.566049" lon="10.521142">
        <ele>1397.77</ele>
      </trkpt>
      <trkpt lat="46.565978" lon="10.5211">
        <ele>1400.77</ele>
      </trkpt>
      <trkpt lat="46.565711" lon="10.521066">
        <ele>1411.47</ele>
      </trkpt>
      <trkpt lat="46.565662" lon="10.521042">
        <ele>1412.88</ele>
      </trkpt>
      <trkpt lat="46.565577" lon="10.520961">
        <ele>1413.93</ele>
      </trkpt>
      <trkpt lat="46.565118" lon="10.520315">
        <ele>1413.52</ele>
      </trkpt>
      <trkpt lat="46.56498" lon="10.520159">
        <ele>1413.84</ele>
      </trkpt>
      <trkpt lat="46.564911" lon="10.520097">
        <ele>1414.02</ele>
      </trkpt>
      <trkpt lat="46.564368" lon="10.519753">
        <ele>1426.71</ele>
      </trkpt>
      <trkpt lat="46.564137" lon="10.51962">
        <ele>1430.96</ele>
      </trkpt>
      <trkpt lat="46.564012" lon="10.519515">
        <ele>1431.27</ele>
      </trkpt>
      <trkpt lat="46.563826" lon="10.519333">
        <ele>1429.01</ele>
      </trkpt>
      <trkpt lat="46.56369" lon="10.519264">
        <ele>1428.75</ele>
      </trkpt>
      <trkpt lat="46.563518" lon="10.519226">
        <ele>1430.84</ele>
      </trkpt>
      <trkpt lat="46.563404" lon="10.51916">
        <ele>1431.92</ele>
      </trkpt>
      <trkpt lat="46.563286" lon="10.519054">
        <ele>1432.57</ele>
      </trkpt>
      <trkpt lat="46.563186" lon="10.518915">
        <ele>1431.95</ele>
      </trkpt>
      <trkpt lat="46.563058" lon="10.51868">
        <ele>1430.97</ele>
      </trkpt>
      <trkpt lat="46.562923" lon="10.518533">
        <ele>1429.24</ele>
      </trkpt>
      <trkpt lat="46.562754" lon="10.518457">
        <ele>1427.55</ele>
      </trkpt>
      <trkpt lat="46.562359" lon="10.518321">
        <ele>1429.7</ele>
      </trkpt>
      <trkpt lat="46.562262" lon="10.518268">
        <ele>1430.13</ele>
      </trkpt>
      <trkpt lat="46.562187" lon="10.518125">
        <ele>1431.07</ele>
      </trkpt>
      <trkpt lat="46.562001" lon="10.517616">
        <ele>1428.82</ele>
      </trkpt>
      <trkpt lat="46.561736" lon="10.517122">
        <ele>1438.54</ele>
      </trkpt>
      <trkpt lat="46.56156" lon="10.516749">
        <ele>1442.04</ele>
      </trkpt>
      <trkpt lat="46.56137" lon="10.516216">
        <ele>1454.02</ele>
      </trkpt>
      <trkpt lat="46.561207" lon="10.515956">
        <ele>1455.77</ele>
      </trkpt>
      <trkpt lat="46.561064" lon="10.515754">
        <ele>1460.22</ele>
      </trkpt>
      <trkpt lat="46.560956" lon="10.515621">
        <ele>1464.44</ele>
      </trkpt>
      <trkpt lat="46.560841" lon="10.515532">
        <ele>1466.31</ele>
      </trkpt>
      <trkpt lat="46.560497" lon="10.515366">
        <ele>1466.98</ele>
      </trkpt>
      <trkpt lat="46.560412" lon="10.515336">
        <ele>1466.53</ele>
      </trkpt>
      <trkpt lat="46.560123" lon="10.51533">
        <ele>1462.83</ele>
      </trkpt>
      <trkpt lat="46.559751" lon="10.515352">
        <ele>1459.64</ele>
      </trkpt>
      <trkpt lat="46.559461" lon="10.515337">
        <ele>1458.2</ele>
      </trkpt>
      <trkpt lat="46.558861" lon="10.515258">
        <ele>1461.55</ele>
      </trkpt>
      <trkpt lat="46.558763" lon="10.515223">
        <ele>1462.28</ele>
      </trkpt>
      <trkpt lat="46.558537" lon="10.515114">
        <ele>1463.6</ele>
      </trkpt>
      <trkpt lat="46.558187" lon="10.514913">
        <ele>1466.56</ele>
      </trkpt>
      <trkpt lat="46.557817" lon="10.514768">
        <ele>1468.61</ele>
      </trkpt>
      <trkpt lat="46.557692" lon="10.514699">
        <ele>1469.62</ele>
      </trkpt>
      <trkpt lat="46.557345" lon="10.514428">
        <ele>1472.97</ele>
      </trkpt>
      <trkpt lat="46.557063" lon="10.514265">
        <ele>1473.78</ele>
      </trkpt>
      <trkpt lat="46.556594" lon="10.513958">
        <ele>1481.08</ele>
      </trkpt>
      <trkpt lat="46.556395" lon="10.513797">
        <ele>1483.53</ele>
      </trkpt>
      <trkpt lat="46.556293" lon="10.513709">
        <ele>1484.37</ele>
      </trkpt>
      <trkpt lat="46.555968" lon="10.513379">
        <ele>1489.89</ele>
      </trkpt>
      <trkpt lat="46.555658" lon="10.512991">
        <ele>1502.47</ele>
      </trkpt>
      <trkpt lat="46.555594" lon="10.512941">
        <ele>1503.33</ele>
      </trkpt>
      <trkpt lat="46.555171" lon="10.512703">
        <ele>1503.12</ele>
      </trkpt>
      <trkpt lat="46.55506" lon="10.512661">
        <ele>1502.23</ele>
      </trkpt>
      <trkpt lat="46.554786" lon="10.512609">
        <ele>1498.96</ele>
      </trkpt>
      <trkpt lat="46.55464" lon="10.512549">
        <ele>1497.68</ele>
      </trkpt>
      <trkpt lat="46.554556" lon="10.51247">
        <ele>1498.27</ele>
      </trkpt>
      <trkpt lat="46.554361" lon="10.512159">
        <ele>1502.41</ele>
      </trkpt>
      <trkpt lat="46.554274" lon="10.512045">
        <ele>1504.14</ele>
      </trkpt>
      <trkpt lat="46.554124" lon="10.511888">
        <ele>1505.85</ele>
      </trkpt>
      <trkpt lat="46.553951" lon="10.511736">
        <ele>1507.04</ele>
      </trkpt>
      <trkpt lat="46.553836" lon="10.511663">
        <ele>1508.31</ele>
      </trkpt>
      <trkpt lat="46.553427" lon="10.511515">
        <ele>1507.87</ele>
      </trkpt>
      <trkpt lat="46.553318" lon="10.511452">
        <ele>1508.68</ele>
      </trkpt>
      <trkpt lat="46.553218" lon="10.511378">
        <ele>1509.77</ele>
      </trkpt>
      <trkpt lat="46.552811" lon="10.511034">
        <ele>1514.79</ele>
      </trkpt>
      <trkpt lat="46.552757" lon="10.510998">
        <ele>1515.19</ele>
      </trkpt>
      <trkpt lat="46.552654" lon="10.510969">
        <ele>1515.9</ele>
      </trkpt>
      <trkpt lat="46.552309" lon="10.510939">
        <ele>1516.62</ele>
      </trkpt>
      <trkpt lat="46.552345" lon="10.510845">
        <ele>1519.07</ele>
      </trkpt>
      <trkpt lat="46.552593" lon="10.510755">
        <ele>1521.79</ele>
      </trkpt>
      <trkpt lat="46.552706" lon="10.510469">
        <ele>1530.37</ele>
      </trkpt>
      <trkpt lat="46.553025" lon="10.510413">
        <ele>1537.29</ele>
      </trkpt>
      <trkpt lat="46.553092" lon="10.510353">
        <ele>1540.85</ele>
      </trkpt>
      <trkpt lat="46.553105" lon="10.510282">
        <ele>1543.75</ele>
      </trkpt>
      <trkpt lat="46.553124" lon="10.510148">
        <ele>1549.27</ele>
      </trkpt>
      <trkpt lat="46.553082" lon="10.510001">
        <ele>1554.73</ele>
      </trkpt>
      <trkpt lat="46.552981" lon="10.509856">
        <ele>1559.21</ele>
      </trkpt>
      <trkpt lat="46.552967" lon="10.509788">
        <ele>1562.18</ele>
      </trkpt>
      <trkpt lat="46.552973" lon="10.509753">
        <ele>1564.1</ele>
      </trkpt>
      <trkpt lat="46.552829" lon="10.509674">
        <ele>1564.11</ele>
      </trkpt>
      <trkpt lat="46.552726" lon="10.509578">
        <ele>1566.66</ele>
      </trkpt>
      <trkpt lat="46.552539" lon="10.50956">
        <ele>1565.89</ele>
      </trkpt>
      <trkpt lat="46.552332" lon="10.509641">
        <ele>1560.38</ele>
      </trkpt>
      <trkpt lat="46.551922" lon="10.509638">
        <ele>1557.18</ele>
      </trkpt>
      <trkpt lat="46.551923" lon="10.509604">
        <ele>1558.6</ele>
      </trkpt>
      <trkpt lat="46.551915" lon="10.509575">
        <ele>1559.62</ele>
      </trkpt>
      <trkpt lat="46.551875" lon="10.509527">
        <ele>1560.92</ele>
      </trkpt>
      <trkpt lat="46.551843" lon="10.509515">
        <ele>1560.82</ele>
      </trkpt>
      <trkpt lat="46.551613" lon="10.509495">
        <ele>1557.53</ele>
      </trkpt>
      <trkpt lat="46.551502" lon="10.509456">
        <ele>1556.91</ele>
      </trkpt>
      <trkpt lat="46.551282" lon="10.509332">
        <ele>1556.65</ele>
      </trkpt>
      <trkpt lat="46.551135" lon="10.509226">
        <ele>1556.6</ele>
      </trkpt>
      <trkpt lat="46.550989" lon="10.509101">
        <ele>1557.34</ele>
      </trkpt>
      <trkpt lat="46.55091" lon="10.509022">
        <ele>1558.06</ele>
      </trkpt>
      <trkpt lat="46.550721" lon="10.508799">
        <ele>1559.77</ele>
      </trkpt>
      <trkpt lat="46.550476" lon="10.508401">
        <ele>1562.19</ele>
      </trkpt>
      <trkpt lat="46.550371" lon="10.508186">
        <ele>1562.4</ele>
      </trkpt>
      <trkpt lat="46.549992" lon="10.507162">
        <ele>1573.86</ele>
      </trkpt>
      <trkpt lat="46.549915" lon="10.506991">
        <ele>1577.1</ele>
      </trkpt>
      <trkpt lat="46.549866" lon="10.506922">
        <ele>1577.99</ele>
      </trkpt>
      <trkpt lat="46.549617" lon="10.506653">
        <ele>1581.28</ele>
      </trkpt>
      <trkpt lat="46.549363" lon="10.506399">
        <ele>1585.19</ele>
      </trkpt>
      <trkpt lat="46.549251" lon="10.506306">
        <ele>1586.77</ele>
      </trkpt>
      <trkpt lat="46.549198" lon="10.50628">
        <ele>1586.75</ele>
      </trkpt>
      <trkpt lat="46.548894" lon="10.506186">
        <ele>1584.38</ele>
      </trkpt>
      <trkpt lat="46.548823" lon="10.506144">
        <ele>1584.22</ele>
      </trkpt>
      <trkpt lat="46.548443" lon="10.505882">
        <ele>1587.49</ele>
      </trkpt>
      <trkpt lat="46.548074" lon="10.505567">
        <ele>1603.58</ele>
      </trkpt>
      <trkpt lat="46.548014" lon="10.505525">
        <ele>1606.16</ele>
      </trkpt>
      <trkpt lat="46.547971" lon="10.505502">
        <ele>1607.77</ele>
      </trkpt>
      <trkpt lat="46.547902" lon="10.505485">
        <ele>1609.51</ele>
      </trkpt>
      <trkpt lat="46.5474" lon="10.505501">
        <ele>1619.19</ele>
      </trkpt>
      <trkpt lat="46.547301" lon="10.505522">
        <ele>1620.49</ele>
      </trkpt>
      <trkpt lat="46.546614" lon="10.505755">
        <ele>1623.03</ele>
      </trkpt>
      <trkpt lat="46.546423" lon="10.505814">
        <ele>1622.78</ele>
      </trkpt>
      <trkpt lat="46.546307" lon="10.505839">
        <ele>1623.1</ele>
      </trkpt>
      <trkpt lat="46.546091" lon="10.505839">
        <ele>1625.8</ele>
      </trkpt>
      <trkpt lat="46.544578" lon="10.505642">
        <ele>1637.8</ele>
      </trkpt>
      <trkpt lat="46.544482" lon="10.505616">
        <ele>1639.25</ele>
      </trkpt>
      <trkpt lat="46.543739" lon="10.505212">
        <ele>1645.05</ele>
      </trkpt>
      <trkpt lat="46.543497" lon="10.505063">
        <ele>1645.12</ele>
      </trkpt>
      <trkpt lat="46.543284" lon="10.504955">
        <ele>1647.68</ele>
      </trkpt>
      <trkpt lat="46.543169" lon="10.504883">
        <ele>1649.26</ele>
      </trkpt>
      <trkpt lat="46.543148" lon="10.504844">
        <ele>1650.59</ele>
      </trkpt>
      <trkpt lat="46.543149" lon="10.504805">
        <ele>1652.2</ele>
      </trkpt>
      <trkpt lat="46.543166" lon="10.504769">
        <ele>1653.93</ele>
      </trkpt>
      <trkpt lat="46.543198" lon="10.50476">
        <ele>1654.79</ele>
      </trkpt>
      <trkpt lat="46.543685" lon="10.504936">
        <ele>1654.32</ele>
      </trkpt>
      <trkpt lat="46.543789" lon="10.504955">
        <ele>1655.61</ele>
      </trkpt>
      <trkpt lat="46.543943" lon="10.504939">
        <ele>1659.76</ele>
      </trkpt>
      <trkpt lat="46.544016" lon="10.504941">
        <ele>1661.22</ele>
      </trkpt>
      <trkpt lat="46.544132" lon="10.504994">
        <ele>1661.14</ele>
      </trkpt>
      <trkpt lat="46.544363" lon="10.505122">
        <ele>1660.07</ele>
      </trkpt>
      <trkpt lat="46.544405" lon="10.505135">
        <ele>1660.38</ele>
      </trkpt>
      <trkpt lat="46.544473" lon="10.505138">
        <ele>1660.76</ele>
      </trkpt>
      <trkpt lat="46.544538" lon="10.505125">
        <ele>1661.54</ele>
      </trkpt>
      <trkpt lat="46.544822" lon="10.50504">
        <ele>1666.61</ele>
      </trkpt>
      <trkpt lat="46.545094" lon="10.504985">
        <ele>1670.31</ele>
      </trkpt>
      <trkpt lat="46.545122" lon="10.504962">
        <ele>1671.52</ele>
      </trkpt>
      <trkpt lat="46.545131" lon="10.504919">
        <ele>1673.67</ele>
      </trkpt>
      <trkpt lat="46.545118" lon="10.504881">
        <ele>1675.5</ele>
      </trkpt>
      <trkpt lat="46.545092" lon="10.504869">
        <ele>1676</ele>
      </trkpt>
      <trkpt lat="46.544552" lon="10.504902">
        <ele>1672.43</ele>
      </trkpt>
      <trkpt lat="46.544496" lon="10.5049">
        <ele>1672.33</ele>
      </trkpt>
      <trkpt lat="46.544423" lon="10.504881">
        <ele>1672.97</ele>
      </trkpt>
      <trkpt lat="46.544351" lon="10.50481">
        <ele>1674.91</ele>
      </trkpt>
      <trkpt lat="46.544261" lon="10.504682">
        <ele>1679.27</ele>
      </trkpt>
      <trkpt lat="46.544173" lon="10.504571">
        <ele>1682.85</ele>
      </trkpt>
      <trkpt lat="46.544129" lon="10.504528">
        <ele>1683.97</ele>
      </trkpt>
      <trkpt lat="46.544079" lon="10.504496">
        <ele>1684.49</ele>
      </trkpt>
      <trkpt lat="46.544011" lon="10.504475">
        <ele>1684.06</ele>
      </trkpt>
      <trkpt lat="46.543831" lon="10.504453">
        <ele>1681.27</ele>
      </trkpt>
      <trkpt lat="46.543796" lon="10.504438">
        <ele>1681.22</ele>
      </trkpt>
      <trkpt lat="46.543751" lon="10.504411">
        <ele>1681.59</ele>
      </trkpt>
      <trkpt lat="46.543562" lon="10.504246">
        <ele>1685.53</ele>
      </trkpt>
      <trkpt lat="46.543247" lon="10.504093">
        <ele>1685.27</ele>
      </trkpt>
      <trkpt lat="46.543087" lon="10.503991">
        <ele>1685.79</ele>
      </trkpt>
      <trkpt lat="46.542891" lon="10.503785">
        <ele>1689.4</ele>
      </trkpt>
      <trkpt lat="46.542832" lon="10.503738">
        <ele>1689.59</ele>
      </trkpt>
      <trkpt lat="46.542682" lon="10.503653">
        <ele>1690.5</ele>
      </trkpt>
      <trkpt lat="46.54261" lon="10.50358">
        <ele>1693.07</ele>
      </trkpt>
      <trkpt lat="46.54258" lon="10.503535">
        <ele>1694.66</ele>
      </trkpt>
      <trkpt lat="46.542432" lon="10.503172">
        <ele>1705.67</ele>
      </trkpt>
      <trkpt lat="46.542346" lon="10.503069">
        <ele>1707.53</ele>
      </trkpt>
      <trkpt lat="46.542279" lon="10.50304">
        <ele>1707.26</ele>
      </trkpt>
      <trkpt lat="46.541985" lon="10.503029">
        <ele>1702.44</ele>
      </trkpt>
      <trkpt lat="46.541835" lon="10.503046">
        <ele>1703.8</ele>
      </trkpt>
      <trkpt lat="46.541756" lon="10.503088">
        <ele>1705.25</ele>
      </trkpt>
      <trkpt lat="46.541718" lon="10.503124">
        <ele>1705.56</ele>
      </trkpt>
      <trkpt lat="46.54165" lon="10.503227">
        <ele>1705</ele>
      </trkpt>
      <trkpt lat="46.541578" lon="10.503366">
        <ele>1703.47</ele>
      </trkpt>
      <trkpt lat="46.541554" lon="10.503386">
        <ele>1703.58</ele>
      </trkpt>
      <trkpt lat="46.541376" lon="10.503491">
        <ele>1705.26</ele>
      </trkpt>
      <trkpt lat="46.541303" lon="10.503524">
        <ele>1706.13</ele>
      </trkpt>
      <trkpt lat="46.54123" lon="10.503541">
        <ele>1707.43</ele>
      </trkpt>
      <trkpt lat="46.54117" lon="10.503542">
        <ele>1708.95</ele>
      </trkpt>
      <trkpt lat="46.541034" lon="10.503525">
        <ele>1711.6</ele>
      </trkpt>
      <trkpt lat="46.540981" lon="10.503512">
        <ele>1712.07</ele>
      </trkpt>
      <trkpt lat="46.540945" lon="10.50349">
        <ele>1712.79</ele>
      </trkpt>
      <trkpt lat="46.540899" lon="10.503453">
        <ele>1713.92</ele>
      </trkpt>
      <trkpt lat="46.540764" lon="10.503252">
        <ele>1720.68</ele>
      </trkpt>
      <trkpt lat="46.540633" lon="10.503136">
        <ele>1724.87</ele>
      </trkpt>
      <trkpt lat="46.540319" lon="10.503016">
        <ele>1729.77</ele>
      </trkpt>
      <trkpt lat="46.540298" lon="10.502997">
        <ele>1730.55</ele>
      </trkpt>
      <trkpt lat="46.540285" lon="10.50297">
        <ele>1731.55</ele>
      </trkpt>
      <trkpt lat="46.540289" lon="10.502914">
        <ele>1733.63</ele>
      </trkpt>
      <trkpt lat="46.540314" lon="10.502882">
        <ele>1734.73</ele>
      </trkpt>
      <trkpt lat="46.540355" lon="10.502877">
        <ele>1734.81</ele>
      </trkpt>
      <trkpt lat="46.540548" lon="10.502938">
        <ele>1732.03</ele>
      </trkpt>
      <trkpt lat="46.540778" lon="10.503038">
        <ele>1727.96</ele>
      </trkpt>
      <trkpt lat="46.540848" lon="10.503088">
        <ele>1726.13</ele>
      </trkpt>
      <trkpt lat="46.540965" lon="10.503197">
        <ele>1722.29</ele>
      </trkpt>
      <trkpt lat="46.541042" lon="10.503242">
        <ele>1720.74</ele>
      </trkpt>
      <trkpt lat="46.541109" lon="10.50325">
        <ele>1719.88</ele>
      </trkpt>
      <trkpt lat="46.541184" lon="10.503235">
        <ele>1718.22</ele>
      </trkpt>
      <trkpt lat="46.541215" lon="10.503212">
        <ele>1718.03</ele>
      </trkpt>
      <trkpt lat="46.541248" lon="10.503163">
        <ele>1718.56</ele>
      </trkpt>
      <trkpt lat="46.541265" lon="10.503102">
        <ele>1719.9</ele>
      </trkpt>
      <trkpt lat="46.541278" lon="10.502798">
        <ele>1728.57</ele>
      </trkpt>
      <trkpt lat="46.541304" lon="10.502577">
        <ele>1734.22</ele>
      </trkpt>
      <trkpt lat="46.541408" lon="10.502109">
        <ele>1742.66</ele>
      </trkpt>
      <trkpt lat="46.541405" lon="10.502052">
        <ele>1744.22</ele>
      </trkpt>
      <trkpt lat="46.541388" lon="10.502016">
        <ele>1745.86</ele>
      </trkpt>
      <trkpt lat="46.541365" lon="10.502006">
        <ele>1747.06</ele>
      </trkpt>
      <trkpt lat="46.541344" lon="10.502009">
        <ele>1747.81</ele>
      </trkpt>
      <trkpt lat="46.541313" lon="10.50205">
        <ele>1747.91</ele>
      </trkpt>
      <trkpt lat="46.541256" lon="10.502313">
        <ele>1743.09</ele>
      </trkpt>
      <trkpt lat="46.541082" lon="10.502955">
        <ele>1729.99</ele>
      </trkpt>
      <trkpt lat="46.541059" lon="10.502989">
        <ele>1728.95</ele>
      </trkpt>
      <trkpt lat="46.541033" lon="10.502996">
        <ele>1728.79</ele>
      </trkpt>
      <trkpt lat="46.541003" lon="10.502974">
        <ele>1729.57</ele>
      </trkpt>
      <trkpt lat="46.540992" lon="10.502929">
        <ele>1731.09</ele>
      </trkpt>
      <trkpt lat="46.54107" lon="10.502623">
        <ele>1740.82</ele>
      </trkpt>
      <trkpt lat="46.541162" lon="10.502126">
        <ele>1751.82</ele>
      </trkpt>
      <trkpt lat="46.5413" lon="10.501587">
        <ele>1760.03</ele>
      </trkpt>
      <trkpt lat="46.541386" lon="10.501138">
        <ele>1766.43</ele>
      </trkpt>
      <trkpt lat="46.541385" lon="10.501088">
        <ele>1767.54</ele>
      </trkpt>
      <trkpt lat="46.541372" lon="10.501065">
        <ele>1768.56</ele>
      </trkpt>
      <trkpt lat="46.541347" lon="10.501054">
        <ele>1769.81</ele>
      </trkpt>
      <trkpt lat="46.541327" lon="10.501063">
        <ele>1770.44</ele>
      </trkpt>
      <trkpt lat="46.54131" lon="10.501087">
        <ele>1770.56</ele>
      </trkpt>
      <trkpt lat="46.541242" lon="10.501302">
        <ele>1768.6</ele>
      </trkpt>
      <trkpt lat="46.540975" lon="10.502059">
        <ele>1758.17</ele>
      </trkpt>
      <trkpt lat="46.540916" lon="10.502268">
        <ele>1752.58</ele>
      </trkpt>
      <trkpt lat="46.540898" lon="10.502302">
        <ele>1751.72</ele>
      </trkpt>
      <trkpt lat="46.540874" lon="10.502317">
        <ele>1751.49</ele>
      </trkpt>
      <trkpt lat="46.54084" lon="10.502298">
        <ele>1752.42</ele>
      </trkpt>
      <trkpt lat="46.54083" lon="10.502257">
        <ele>1753.85</ele>
      </trkpt>
      <trkpt lat="46.540915" lon="10.501969">
        <ele>1761.82</ele>
      </trkpt>
      <trkpt lat="46.540951" lon="10.501804">
        <ele>1766.23</ele>
      </trkpt>
      <trkpt lat="46.540957" lon="10.501609">
        <ele>1770.97</ele>
      </trkpt>
      <trkpt lat="46.540954" lon="10.501414">
        <ele>1775.58</ele>
      </trkpt>
      <trkpt lat="46.540977" lon="10.501086">
        <ele>1782.5</ele>
      </trkpt>
      <trkpt lat="46.540963" lon="10.501046">
        <ele>1783.84</ele>
      </trkpt>
      <trkpt lat="46.540933" lon="10.501027">
        <ele>1785.13</ele>
      </trkpt>
      <trkpt lat="46.540902" lon="10.501033">
        <ele>1785.88</ele>
      </trkpt>
      <trkpt lat="46.540879" lon="10.501072">
        <ele>1785.59</ele>
      </trkpt>
      <trkpt lat="46.540863" lon="10.501333">
        <ele>1779.73</ele>
      </trkpt>
      <trkpt lat="46.540827" lon="10.501698">
        <ele>1771.66</ele>
      </trkpt>
      <trkpt lat="46.540768" lon="10.502019">
        <ele>1762.53</ele>
      </trkpt>
      <trkpt lat="46.540747" lon="10.502071">
        <ele>1761.08</ele>
      </trkpt>
      <trkpt lat="46.540721" lon="10.502092">
        <ele>1760.73</ele>
      </trkpt>
      <trkpt lat="46.540705" lon="10.50209">
        <ele>1761.04</ele>
      </trkpt>
      <trkpt lat="46.540683" lon="10.50207">
        <ele>1762.06</ele>
      </trkpt>
      <trkpt lat="46.54067" lon="10.502024">
        <ele>1763.88</ele>
      </trkpt>
      <trkpt lat="46.540675" lon="10.501988">
        <ele>1765.05</ele>
      </trkpt>
      <trkpt lat="46.540736" lon="10.501799">
        <ele>1770.56</ele>
      </trkpt>
      <trkpt lat="46.540742" lon="10.501726">
        <ele>1772.72</ele>
      </trkpt>
      <trkpt lat="46.540741" lon="10.501668">
        <ele>1774.24</ele>
      </trkpt>
      <trkpt lat="46.540691" lon="10.501261">
        <ele>1785.96</ele>
      </trkpt>
      <trkpt lat="46.540722" lon="10.500905">
        <ele>1794.56</ele>
      </trkpt>
      <trkpt lat="46.540773" lon="10.500713">
        <ele>1801.42</ele>
      </trkpt>
      <trkpt lat="46.540808" lon="10.500616">
        <ele>1804.45</ele>
      </trkpt>
      <trkpt lat="46.54096" lon="10.500356">
        <ele>1810.04</ele>
      </trkpt>
      <trkpt lat="46.541428" lon="10.499705">
        <ele>1812.27</ele>
      </trkpt>
      <trkpt lat="46.541446" lon="10.499658">
        <ele>1812.86</ele>
      </trkpt>
      <trkpt lat="46.541438" lon="10.499619">
        <ele>1814.43</ele>
      </trkpt>
      <trkpt lat="46.541415" lon="10.4996">
        <ele>1816.22</ele>
      </trkpt>
      <trkpt lat="46.541385" lon="10.499612">
        <ele>1817.38</ele>
      </trkpt>
      <trkpt lat="46.541188" lon="10.499857">
        <ele>1819.16</ele>
      </trkpt>
      <trkpt lat="46.541133" lon="10.499912">
        <ele>1819.96</ele>
      </trkpt>
      <trkpt lat="46.540632" lon="10.500299">
        <ele>1824.86</ele>
      </trkpt>
      <trkpt lat="46.540553" lon="10.500376">
        <ele>1824.31</ele>
      </trkpt>
      <trkpt lat="46.54032" lon="10.50068">
        <ele>1817.85</ele>
      </trkpt>
      <trkpt lat="46.540265" lon="10.500731">
        <ele>1817.1</ele>
      </trkpt>
      <trkpt lat="46.540168" lon="10.500772">
        <ele>1818.57</ele>
      </trkpt>
      <trkpt lat="46.540027" lon="10.500787">
        <ele>1823.02</ele>
      </trkpt>
      <trkpt lat="46.539967" lon="10.500808">
        <ele>1824.24</ele>
      </trkpt>
      <trkpt lat="46.539205" lon="10.501215">
        <ele>1831.13</ele>
      </trkpt>
      <trkpt lat="46.538952" lon="10.501307">
        <ele>1833.33</ele>
      </trkpt>
      <trkpt lat="46.538656" lon="10.501371">
        <ele>1838.22</ele>
      </trkpt>
      <trkpt lat="46.538613" lon="10.501395">
        <ele>1838.31</ele>
      </trkpt>
      <trkpt lat="46.538526" lon="10.501418">
        <ele>1837.88</ele>
      </trkpt>
      <trkpt lat="46.538044" lon="10.501419">
        <ele>1837.15</ele>
      </trkpt>
      <trkpt lat="46.537491" lon="10.501461">
        <ele>1829.24</ele>
      </trkpt>
      <trkpt lat="46.537388" lon="10.501457">
        <ele>1826.99</ele>
      </trkpt>
      <trkpt lat="46.537338" lon="10.501439">
        <ele>1826.43</ele>
      </trkpt>
      <trkpt lat="46.53731" lon="10.501405">
        <ele>1826.91</ele>
      </trkpt>
      <trkpt lat="46.537303" lon="10.501363">
        <ele>1828.18</ele>
      </trkpt>
      <trkpt lat="46.537319" lon="10.501312">
        <ele>1830.27</ele>
      </trkpt>
      <trkpt lat="46.537278" lon="10.501266">
        <ele>1830.88</ele>
      </trkpt>
      <trkpt lat="46.537233" lon="10.501261">
        <ele>1830.02</ele>
      </trkpt>
      <trkpt lat="46.53722" lon="10.501197">
        <ele>1831.92</ele>
      </trkpt>
      <trkpt lat="46.537171" lon="10.501138">
        <ele>1832.82</ele>
      </trkpt>
      <trkpt lat="46.537134" lon="10.501044">
        <ele>1835.2</ele>
      </trkpt>
      <trkpt lat="46.537399" lon="10.501103">
        <ele>1839.06</ele>
      </trkpt>
      <trkpt lat="46.53756" lon="10.501028">
        <ele>1845.09</ele>
      </trkpt>
      <trkpt lat="46.537506" lon="10.500956">
        <ele>1846.32</ele>
      </trkpt>
      <trkpt lat="46.537558" lon="10.500934">
        <ele>1848.15</ele>
      </trkpt>
      <trkpt lat="46.537475" lon="10.500819">
        <ele>1851.9</ele>
      </trkpt>
      <trkpt lat="46.537569" lon="10.500797">
        <ele>1855.15</ele>
      </trkpt>
      <trkpt lat="46.537521" lon="10.500712">
        <ele>1858.45</ele>
      </trkpt>
      <trkpt lat="46.537438" lon="10.500701">
        <ele>1857</ele>
      </trkpt>
      <trkpt lat="46.537381" lon="10.500653">
        <ele>1858.02</ele>
      </trkpt>
      <trkpt lat="46.537457" lon="10.500631">
        <ele>1860.97</ele>
      </trkpt>
      <trkpt lat="46.537493" lon="10.500564">
        <ele>1865.3</ele>
      </trkpt>
      <trkpt lat="46.537543" lon="10.500564">
        <ele>1866.58</ele>
      </trkpt>
      <trkpt lat="46.537525" lon="10.500482">
        <ele>1870.31</ele>
      </trkpt>
      <trkpt lat="46.537443" lon="10.500484">
        <ele>1868.05</ele>
      </trkpt>
      <trkpt lat="46.537391" lon="10.500471">
        <ele>1867.3</ele>
      </trkpt>
      <trkpt lat="46.537265" lon="10.500388">
        <ele>1867.94</ele>
      </trkpt>
      <trkpt lat="46.537113" lon="10.500272">
        <ele>1869.16</ele>
      </trkpt>
      <trkpt lat="46.537067" lon="10.500205">
        <ele>1870.89</ele>
      </trkpt>
      <trkpt lat="46.537038" lon="10.500138">
        <ele>1873.08</ele>
      </trkpt>
      <trkpt lat="46.536877" lon="10.499711">
        <ele>1885.77</ele>
      </trkpt>
      <trkpt lat="46.536763" lon="10.499501">
        <ele>1889.33</ele>
      </trkpt>
      <trkpt lat="46.53666" lon="10.499429">
        <ele>1887.53</ele>
      </trkpt>
      <trkpt lat="46.536438" lon="10.499311">
        <ele>1882.4</ele>
      </trkpt>
      <trkpt lat="46.536384" lon="10.49927">
        <ele>1881.81</ele>
      </trkpt>
      <trkpt lat="46.536325" lon="10.499203">
        <ele>1881.8</ele>
      </trkpt>
      <trkpt lat="46.536201" lon="10.498978">
        <ele>1883.9</ele>
      </trkpt>
      <trkpt lat="46.536116" lon="10.49886">
        <ele>1883.5</ele>
      </trkpt>
      <trkpt lat="46.536023" lon="10.498766">
        <ele>1880.08</ele>
      </trkpt>
      <trkpt lat="46.535977" lon="10.498706">
        <ele>1878.51</ele>
      </trkpt>
      <trkpt lat="46.535934" lon="10.498616">
        <ele>1878.05</ele>
      </trkpt>
      <trkpt lat="46.53584" lon="10.498304">
        <ele>1879.82</ele>
      </trkpt>
      <trkpt lat="46.535795" lon="10.498113">
        <ele>1881.25</ele>
      </trkpt>
      <trkpt lat="46.535735" lon="10.497699">
        <ele>1887.79</ele>
      </trkpt>
      <trkpt lat="46.535705" lon="10.49755">
        <ele>1890.13</ele>
      </trkpt>
      <trkpt lat="46.535677" lon="10.497443">
        <ele>1892.49</ele>
      </trkpt>
      <trkpt lat="46.535616" lon="10.497298">
        <ele>1894.38</ele>
      </trkpt>
      <trkpt lat="46.535269" lon="10.496686">
        <ele>1900.12</ele>
      </trkpt>
      <trkpt lat="46.535111" lon="10.496461">
        <ele>1902.41</ele>
      </trkpt>
      <trkpt lat="46.534915" lon="10.496205">
        <ele>1904.06</ele>
      </trkpt>
      <trkpt lat="46.534757" lon="10.495951">
        <ele>1906.45</ele>
      </trkpt>
      <trkpt lat="46.53464" lon="10.495707">
        <ele>1910.1</ele>
      </trkpt>
      <trkpt lat="46.534378" lon="10.495047">
        <ele>1920.75</ele>
      </trkpt>
      <trkpt lat="46.53424" lon="10.494743">
        <ele>1926.19</ele>
      </trkpt>
      <trkpt lat="46.533753" lon="10.49382">
        <ele>1926.61</ele>
      </trkpt>
      <trkpt lat="46.533679" lon="10.493574">
        <ele>1926.09</ele>
      </trkpt>
      <trkpt lat="46.53346" lon="10.492675">
        <ele>1935.81</ele>
      </trkpt>
      <trkpt lat="46.533395" lon="10.492457">
        <ele>1938.01</ele>
      </trkpt>
      <trkpt lat="46.533232" lon="10.492018">
        <ele>1940.76</ele>
      </trkpt>
      <trkpt lat="46.533226" lon="10.491967">
        <ele>1941.75</ele>
      </trkpt>
      <trkpt lat="46.533237" lon="10.491931">
        <ele>1943.22</ele>
      </trkpt>
      <trkpt lat="46.533179" lon="10.491766">
        <ele>1943.99</ele>
      </trkpt>
      <trkpt lat="46.533139" lon="10.491699">
        <ele>1943.44</ele>
      </trkpt>
      <trkpt lat="46.533122" lon="10.49163">
        <ele>1944.45</ele>
      </trkpt>
      <trkpt lat="46.533101" lon="10.491592">
        <ele>1944.33</ele>
      </trkpt>
      <trkpt lat="46.533043" lon="10.49139">
        <ele>1946.84</ele>
      </trkpt>
      <trkpt lat="46.533049" lon="10.491311">
        <ele>1949.43</ele>
      </trkpt>
      <trkpt lat="46.532997" lon="10.491155">
        <ele>1951.19</ele>
      </trkpt>
      <trkpt lat="46.532984" lon="10.491055">
        <ele>1953.43</ele>
      </trkpt>
      <trkpt lat="46.532959" lon="10.490961">
        <ele>1954.89</ele>
      </trkpt>
      <trkpt lat="46.532959" lon="10.490952">
        <ele>1955.16</ele>
      </trkpt>
      <trkpt lat="46.532995" lon="10.49097">
        <ele>1956.46</ele>
      </trkpt>
      <trkpt lat="46.533031" lon="10.490952">
        <ele>1958.8</ele>
      </trkpt>
      <trkpt lat="46.532701" lon="10.490252">
        <ele>1962.96</ele>
      </trkpt>
      <trkpt lat="46.532591" lon="10.489949">
        <ele>1967.28</ele>
      </trkpt>
      <trkpt lat="46.5325" lon="10.489574">
        <ele>1974.63</ele>
      </trkpt>
      <trkpt lat="46.532479" lon="10.489517">
        <ele>1975.34</ele>
      </trkpt>
      <trkpt lat="46.532412" lon="10.489398">
        <ele>1975.51</ele>
      </trkpt>
      <trkpt lat="46.532376" lon="10.489294">
        <ele>1976.67</ele>
      </trkpt>
      <trkpt lat="46.532294" lon="10.488789">
        <ele>1982.84</ele>
      </trkpt>
      <trkpt lat="46.532223" lon="10.488492">
        <ele>1984.56</ele>
      </trkpt>
      <trkpt lat="46.532093" lon="10.488074">
        <ele>1984.98</ele>
      </trkpt>
      <trkpt lat="46.53202" lon="10.487891">
        <ele>1984.1</ele>
      </trkpt>
      <trkpt lat="46.531974" lon="10.487804">
        <ele>1982.97</ele>
      </trkpt>
      <trkpt lat="46.531931" lon="10.487687">
        <ele>1982.51</ele>
      </trkpt>
      <trkpt lat="46.531927" lon="10.487641">
        <ele>1983.17</ele>
      </trkpt>
      <trkpt lat="46.531936" lon="10.487598">
        <ele>1984.54</ele>
      </trkpt>
      <trkpt lat="46.531957" lon="10.487565">
        <ele>1986.54</ele>
      </trkpt>
      <trkpt lat="46.531983" lon="10.487553">
        <ele>1988.41</ele>
      </trkpt>
      <trkpt lat="46.532006" lon="10.487558">
        <ele>1989.75</ele>
      </trkpt>
      <trkpt lat="46.532028" lon="10.487587">
        <ele>1990.53</ele>
      </trkpt>
      <trkpt lat="46.532086" lon="10.487772">
        <ele>1990.49</ele>
      </trkpt>
      <trkpt lat="46.532209" lon="10.488031">
        <ele>1992.86</ele>
      </trkpt>
      <trkpt lat="46.532337" lon="10.488216">
        <ele>1996.91</ele>
      </trkpt>
      <trkpt lat="46.53245" lon="10.488348">
        <ele>2001.04</ele>
      </trkpt>
      <trkpt lat="46.532615" lon="10.488563">
        <ele>2006.16</ele>
      </trkpt>
      <trkpt lat="46.53265" lon="10.488625">
        <ele>2006.81</ele>
      </trkpt>
      <trkpt lat="46.532915" lon="10.489201">
        <ele>2006.42</ele>
      </trkpt>
      <trkpt lat="46.532961" lon="10.489277">
        <ele>2006.49</ele>
      </trkpt>
      <trkpt lat="46.53344" lon="10.489987">
        <ele>2009.5</ele>
      </trkpt>
      <trkpt lat="46.533746" lon="10.490425">
        <ele>2012.82</ele>
      </trkpt>
      <trkpt lat="46.533782" lon="10.490452">
        <ele>2014.02</ele>
      </trkpt>
      <trkpt lat="46.533816" lon="10.490433">
        <ele>2016.53</ele>
      </trkpt>
      <trkpt lat="46.533828" lon="10.49039">
        <ele>2018.6</ele>
      </trkpt>
      <trkpt lat="46.533816" lon="10.490346">
        <ele>2019.33</ele>
      </trkpt>
      <trkpt lat="46.533558" lon="10.489899">
        <ele>2018</ele>
      </trkpt>
      <trkpt lat="46.533409" lon="10.489416">
        <ele>2023.24</ele>
      </trkpt>
      <trkpt lat="46.533297" lon="10.489007">
        <ele>2028.84</ele>
      </trkpt>
      <trkpt lat="46.533173" lon="10.488443">
        <ele>2037.31</ele>
      </trkpt>
      <trkpt lat="46.533113" lon="10.488272">
        <ele>2038.89</ele>
      </trkpt>
      <trkpt lat="46.532908" lon="10.487826">
        <ele>2039.21</ele>
      </trkpt>
      <trkpt lat="46.532879" lon="10.487729">
        <ele>2039.82</ele>
      </trkpt>
      <trkpt lat="46.532753" lon="10.487138">
        <ele>2043.8</ele>
      </trkpt>
      <trkpt lat="46.532553" lon="10.486123">
        <ele>2052.56</ele>
      </trkpt>
      <trkpt lat="46.53245" lon="10.485757">
        <ele>2055.56</ele>
      </trkpt>
      <trkpt lat="46.53237" lon="10.485545">
        <ele>2056.84</ele>
      </trkpt>
      <trkpt lat="46.532363" lon="10.485507">
        <ele>2057.48</ele>
      </trkpt>
      <trkpt lat="46.532374" lon="10.485466">
        <ele>2059.17</ele>
      </trkpt>
      <trkpt lat="46.532402" lon="10.48544">
        <ele>2061.27</ele>
      </trkpt>
      <trkpt lat="46.532425" lon="10.485445">
        <ele>2062.33</ele>
      </trkpt>
      <trkpt lat="46.532448" lon="10.485477">
        <ele>2062.66</ele>
      </trkpt>
      <trkpt lat="46.532492" lon="10.485604">
        <ele>2061.67</ele>
      </trkpt>
      <trkpt lat="46.533381" lon="10.487656">
        <ele>2070.53</ele>
      </trkpt>
      <trkpt lat="46.533629" lon="10.487902">
        <ele>2077.1</ele>
      </trkpt>
      <trkpt lat="46.533701" lon="10.488023">
        <ele>2077.59</ele>
      </trkpt>
      <trkpt lat="46.533845" lon="10.488321">
        <ele>2076.71</ele>
      </trkpt>
      <trkpt lat="46.533868" lon="10.488354">
        <ele>2077.07</ele>
      </trkpt>
      <trkpt lat="46.533892" lon="10.488362">
        <ele>2078.26</ele>
      </trkpt>
      <trkpt lat="46.533911" lon="10.488343">
        <ele>2080.07</ele>
      </trkpt>
      <trkpt lat="46.53392" lon="10.488314">
        <ele>2081.54</ele>
      </trkpt>
      <trkpt lat="46.533914" lon="10.488273">
        <ele>2082.55</ele>
      </trkpt>
      <trkpt lat="46.533738" lon="10.487882">
        <ele>2084.52</ele>
      </trkpt>
      <trkpt lat="46.53357" lon="10.487568">
        <ele>2084.31</ele>
      </trkpt>
      <trkpt lat="46.533539" lon="10.487469">
        <ele>2085.83</ele>
      </trkpt>
      <trkpt lat="46.533429" lon="10.486871">
        <ele>2098.04</ele>
      </trkpt>
      <trkpt lat="46.533402" lon="10.486771">
        <ele>2099.1</ele>
      </trkpt>
      <trkpt lat="46.533244" lon="10.486352">
        <ele>2098.55</ele>
      </trkpt>
      <trkpt lat="46.533022" lon="10.48549">
        <ele>2100.86</ele>
      </trkpt>
      <trkpt lat="46.532911" lon="10.485152">
        <ele>2099.39</ele>
      </trkpt>
      <trkpt lat="46.532917" lon="10.485118">
        <ele>2100.71</ele>
      </trkpt>
      <trkpt lat="46.532939" lon="10.485096">
        <ele>2103.08</ele>
      </trkpt>
      <trkpt lat="46.532966" lon="10.485093">
        <ele>2105.37</ele>
      </trkpt>
      <trkpt lat="46.532984" lon="10.485112">
        <ele>2106.49</ele>
      </trkpt>
      <trkpt lat="46.533087" lon="10.485385">
        <ele>2108.84</ele>
      </trkpt>
      <trkpt lat="46.533483" lon="10.486336">
        <ele>2118.3</ele>
      </trkpt>
      <trkpt lat="46.53358" lon="10.486521">
        <ele>2120.39</ele>
      </trkpt>
      <trkpt lat="46.533668" lon="10.486657">
        <ele>2122.18</ele>
      </trkpt>
      <trkpt lat="46.533746" lon="10.486822">
        <ele>2121.92</ele>
      </trkpt>
      <trkpt lat="46.533774" lon="10.486847">
        <ele>2122.87</ele>
      </trkpt>
      <trkpt lat="46.533802" lon="10.486835">
        <ele>2125.19</ele>
      </trkpt>
      <trkpt lat="46.533813" lon="10.486798">
        <ele>2127.23</ele>
      </trkpt>
      <trkpt lat="46.533803" lon="10.486751">
        <ele>2128.3</ele>
      </trkpt>
      <trkpt lat="46.533648" lon="10.486414">
        <ele>2128.45</ele>
      </trkpt>
      <trkpt lat="46.533544" lon="10.48611">
        <ele>2130.08</ele>
      </trkpt>
      <trkpt lat="46.533281" lon="10.485107">
        <ele>2131.58</ele>
      </trkpt>
      <trkpt lat="46.533269" lon="10.484967">
        <ele>2133.54</ele>
      </trkpt>
      <trkpt lat="46.533274" lon="10.484897">
        <ele>2135.38</ele>
      </trkpt>
      <trkpt lat="46.533324" lon="10.48454">
        <ele>2147</ele>
      </trkpt>
      <trkpt lat="46.533321" lon="10.484442">
        <ele>2148.76</ele>
      </trkpt>
      <trkpt lat="46.533306" lon="10.484345">
        <ele>2149.59</ele>
      </trkpt>
      <trkpt lat="46.533284" lon="10.484253">
        <ele>2149.67</ele>
      </trkpt>
      <trkpt lat="46.533224" lon="10.484121">
        <ele>2147.13</ele>
      </trkpt>
      <trkpt lat="46.533121" lon="10.483971">
        <ele>2142.09</ele>
      </trkpt>
      <trkpt lat="46.533041" lon="10.483812">
        <ele>2139.8</ele>
      </trkpt>
      <trkpt lat="46.532741" lon="10.482228">
        <ele>2157.92</ele>
      </trkpt>
      <trkpt lat="46.532742" lon="10.482187">
        <ele>2158.77</ele>
      </trkpt>
      <trkpt lat="46.532757" lon="10.482163">
        <ele>2159.06</ele>
      </trkpt>
      <trkpt lat="46.532784" lon="10.482156">
        <ele>2160.74</ele>
      </trkpt>
      <trkpt lat="46.532804" lon="10.482175">
        <ele>2161.44</ele>
      </trkpt>
      <trkpt lat="46.532852" lon="10.482367">
        <ele>2160.21</ele>
      </trkpt>
      <trkpt lat="46.532931" lon="10.482634">
        <ele>2159.55</ele>
      </trkpt>
      <trkpt lat="46.533186" lon="10.483312">
        <ele>2160.12</ele>
      </trkpt>
      <trkpt lat="46.533206" lon="10.483343">
        <ele>2160.59</ele>
      </trkpt>
      <trkpt lat="46.533228" lon="10.483354">
        <ele>2161.66</ele>
      </trkpt>
      <trkpt lat="46.533249" lon="10.483344">
        <ele>2163.19</ele>
      </trkpt>
      <trkpt lat="46.533263" lon="10.483315">
        <ele>2164.68</ele>
      </trkpt>
      <trkpt lat="46.533258" lon="10.483241">
        <ele>2165.98</ele>
      </trkpt>
      <trkpt lat="46.533204" lon="10.483084">
        <ele>2166.24</ele>
      </trkpt>
      <trkpt lat="46.533123" lon="10.482794">
        <ele>2167.73</ele>
      </trkpt>
      <trkpt lat="46.533102" lon="10.482699">
        <ele>2168.61</ele>
      </trkpt>
      <trkpt lat="46.533089" lon="10.482526">
        <ele>2171.29</ele>
      </trkpt>
      <trkpt lat="46.533096" lon="10.482023">
        <ele>2179.87</ele>
      </trkpt>
      <trkpt lat="46.53309" lon="10.481859">
        <ele>2182.25</ele>
      </trkpt>
      <trkpt lat="46.533051" lon="10.481619">
        <ele>2184.52</ele>
      </trkpt>
      <trkpt lat="46.532975" lon="10.481311">
        <ele>2186.87</ele>
      </trkpt>
      <trkpt lat="46.532975" lon="10.481259">
        <ele>2187.84</ele>
      </trkpt>
      <trkpt lat="46.532993" lon="10.481227">
        <ele>2189.22</ele>
      </trkpt>
      <trkpt lat="46.533024" lon="10.481222">
        <ele>2190.62</ele>
      </trkpt>
      <trkpt lat="46.533051" lon="10.481253">
        <ele>2191.17</ele>
      </trkpt>
      <trkpt lat="46.533243" lon="10.481862">
        <ele>2189.79</ele>
      </trkpt>
      <trkpt lat="46.533285" lon="10.482038">
        <ele>2189.55</ele>
      </trkpt>
      <trkpt lat="46.533323" lon="10.482272">
        <ele>2188.61</ele>
      </trkpt>
      <trkpt lat="46.533365" lon="10.482474">
        <ele>2188.59</ele>
      </trkpt>
      <trkpt lat="46.53355" lon="10.483051">
        <ele>2187.9</ele>
      </trkpt>
      <trkpt lat="46.533572" lon="10.483199">
        <ele>2185.88</ele>
      </trkpt>
      <trkpt lat="46.533597" lon="10.483234">
        <ele>2186.72</ele>
      </trkpt>
      <trkpt lat="46.533636" lon="10.483228">
        <ele>2190.1</ele>
      </trkpt>
      <trkpt lat="46.533652" lon="10.48321">
        <ele>2191.79</ele>
      </trkpt>
      <trkpt lat="46.533663" lon="10.483162">
        <ele>2193.65</ele>
      </trkpt>
      <trkpt lat="46.533657" lon="10.483111">
        <ele>2194.25</ele>
      </trkpt>
      <trkpt lat="46.533563" lon="10.48278">
        <ele>2194.89</ele>
      </trkpt>
      <trkpt lat="46.533526" lon="10.4826">
        <ele>2196.69</ele>
      </trkpt>
      <trkpt lat="46.533514" lon="10.48242">
        <ele>2197.94</ele>
      </trkpt>
      <trkpt lat="46.533516" lon="10.481901">
        <ele>2203.01</ele>
      </trkpt>
      <trkpt lat="46.533488" lon="10.481627">
        <ele>2204.72</ele>
      </trkpt>
      <trkpt lat="46.533353" lon="10.480654">
        <ele>2211.8</ele>
      </trkpt>
      <trkpt lat="46.533341" lon="10.480524">
        <ele>2212.74</ele>
      </trkpt>
      <trkpt lat="46.533281" lon="10.479489">
        <ele>2221.05</ele>
      </trkpt>
      <trkpt lat="46.533247" lon="10.478709">
        <ele>2227.82</ele>
      </trkpt>
      <trkpt lat="46.533261" lon="10.478261">
        <ele>2233.72</ele>
      </trkpt>
      <trkpt lat="46.533293" lon="10.477979">
        <ele>2238.69</ele>
      </trkpt>
      <trkpt lat="46.533295" lon="10.477862">
        <ele>2240.21</ele>
      </trkpt>
      <trkpt lat="46.533288" lon="10.477761">
        <ele>2241.08</ele>
      </trkpt>
      <trkpt lat="46.533255" lon="10.477538">
        <ele>2242.38</ele>
      </trkpt>
      <trkpt lat="46.533008" lon="10.476659">
        <ele>2242.67</ele>
      </trkpt>
      <trkpt lat="46.532903" lon="10.476333">
        <ele>2242.2</ele>
      </trkpt>
      <trkpt lat="46.532899" lon="10.476292">
        <ele>2242.6</ele>
      </trkpt>
      <trkpt lat="46.532904" lon="10.47627">
        <ele>2243.17</ele>
      </trkpt>
      <trkpt lat="46.532924" lon="10.476245">
        <ele>2244.52</ele>
      </trkpt>
      <trkpt lat="46.532945" lon="10.476235">
        <ele>2245.67</ele>
      </trkpt>
      <trkpt lat="46.53297" lon="10.476244">
        <ele>2246.76</ele>
      </trkpt>
      <trkpt lat="46.532985" lon="10.476266">
        <ele>2247.21</ele>
      </trkpt>
      <trkpt lat="46.53306" lon="10.476488">
        <ele>2247.69</ele>
      </trkpt>
      <trkpt lat="46.533141" lon="10.47669">
        <ele>2248.78</ele>
      </trkpt>
      <trkpt lat="46.533414" lon="10.477245">
        <ele>2254.01</ele>
      </trkpt>
      <trkpt lat="46.533484" lon="10.477433">
        <ele>2254.45</ele>
      </trkpt>
      <trkpt lat="46.533558" lon="10.477831">
        <ele>2252.85</ele>
      </trkpt>
      <trkpt lat="46.533577" lon="10.477863">
        <ele>2253.39</ele>
      </trkpt>
      <trkpt lat="46.533589" lon="10.477869">
        <ele>2253.9</ele>
      </trkpt>
      <trkpt lat="46.533623" lon="10.47786">
        <ele>2255.95</ele>
      </trkpt>
      <trkpt lat="46.533639" lon="10.477838">
        <ele>2257.11</ele>
      </trkpt>
      <trkpt lat="46.533643" lon="10.477769">
        <ele>2258.04</ele>
      </trkpt>
      <trkpt lat="46.533506" lon="10.477045">
        <ele>2261.37</ele>
      </trkpt>
      <trkpt lat="46.53333" lon="10.476347">
        <ele>2263.01</ele>
      </trkpt>
      <trkpt lat="46.533334" lon="10.476306">
        <ele>2263.78</ele>
      </trkpt>
      <trkpt lat="46.533351" lon="10.476282">
        <ele>2264.98</ele>
      </trkpt>
      <trkpt lat="46.533378" lon="10.476274">
        <ele>2266.42</ele>
      </trkpt>
      <trkpt lat="46.5334" lon="10.476291">
        <ele>2267.24</ele>
      </trkpt>
      <trkpt lat="46.53345" lon="10.476461">
        <ele>2267.28</ele>
      </trkpt>
      <trkpt lat="46.533708" lon="10.477225">
        <ele>2269.28</ele>
      </trkpt>
      <trkpt lat="46.533848" lon="10.47781">
        <ele>2269.45</ele>
      </trkpt>
      <trkpt lat="46.53387" lon="10.47785">
        <ele>2270.35</ele>
      </trkpt>
      <trkpt lat="46.533892" lon="10.47786">
        <ele>2271.57</ele>
      </trkpt>
      <trkpt lat="46.533916" lon="10.477841">
        <ele>2273.11</ele>
      </trkpt>
      <trkpt lat="46.533924" lon="10.477799">
        <ele>2273.93</ele>
      </trkpt>
      <trkpt lat="46.533876" lon="10.477567">
        <ele>2273.4</ele>
      </trkpt>
      <trkpt lat="46.53372" lon="10.476501">
        <ele>2281.58</ele>
      </trkpt>
      <trkpt lat="46.533708" lon="10.476295">
        <ele>2284.17</ele>
      </trkpt>
      <trkpt lat="46.533711" lon="10.475875">
        <ele>2291.28</ele>
      </trkpt>
      <trkpt lat="46.533629" lon="10.475311">
        <ele>2294.82</ele>
      </trkpt>
      <trkpt lat="46.533548" lon="10.474819">
        <ele>2299.47</ele>
      </trkpt>
      <trkpt lat="46.533544" lon="10.474598">
        <ele>2304.06</ele>
      </trkpt>
      <trkpt lat="46.533525" lon="10.474456">
        <ele>2306.12</ele>
      </trkpt>
      <trkpt lat="46.533478" lon="10.474306">
        <ele>2306.83</ele>
      </trkpt>
      <trkpt lat="46.533282" lon="10.473953">
        <ele>2305.08</ele>
      </trkpt>
      <trkpt lat="46.533139" lon="10.473563">
        <ele>2305.89</ele>
      </trkpt>
      <trkpt lat="46.533039" lon="10.473242">
        <ele>2307.23</ele>
      </trkpt>
      <trkpt lat="46.532676" lon="10.471487">
        <ele>2319.06</ele>
      </trkpt>
      <trkpt lat="46.53258" lon="10.471074">
        <ele>2320.78</ele>
      </trkpt>
      <trkpt lat="46.532581" lon="10.471028">
        <ele>2321.64</ele>
      </trkpt>
      <trkpt lat="46.532596" lon="10.471002">
        <ele>2322.87</ele>
      </trkpt>
      <trkpt lat="46.532625" lon="10.471">
        <ele>2324.46</ele>
      </trkpt>
      <trkpt lat="46.532648" lon="10.471031">
        <ele>2325.18</ele>
      </trkpt>
      <trkpt lat="46.532756" lon="10.471377">
        <ele>2325.23</ele>
      </trkpt>
      <trkpt lat="46.533219" lon="10.472626">
        <ele>2336.3</ele>
      </trkpt>
      <trkpt lat="46.533311" lon="10.472912">
        <ele>2334.94</ele>
      </trkpt>
      <trkpt lat="46.533326" lon="10.472939">
        <ele>2335.18</ele>
      </trkpt>
      <trkpt lat="46.533356" lon="10.472959">
        <ele>2336.77</ele>
      </trkpt>
      <trkpt lat="46.533384" lon="10.472938">
        <ele>2339.4</ele>
      </trkpt>
      <trkpt lat="46.533393" lon="10.472902">
        <ele>2341.05</ele>
      </trkpt>
      <trkpt lat="46.53338" lon="10.47285">
        <ele>2341.71</ele>
      </trkpt>
      <trkpt lat="46.53334" lon="10.472765">
        <ele>2341.37</ele>
      </trkpt>
      <trkpt lat="46.533181" lon="10.472207">
        <ele>2342.95</ele>
      </trkpt>
      <trkpt lat="46.533001" lon="10.471365">
        <ele>2346.31</ele>
      </trkpt>
      <trkpt lat="46.532926" lon="10.470922">
        <ele>2348.34</ele>
      </trkpt>
      <trkpt lat="46.532848" lon="10.470383">
        <ele>2346.93</ele>
      </trkpt>
      <trkpt lat="46.532837" lon="10.470076">
        <ele>2349.14</ele>
      </trkpt>
      <trkpt lat="46.532843" lon="10.469922">
        <ele>2350.63</ele>
      </trkpt>
      <trkpt lat="46.532806" lon="10.469571">
        <ele>2349.46</ele>
      </trkpt>
      <trkpt lat="46.532804" lon="10.469433">
        <ele>2350.09</ele>
      </trkpt>
      <trkpt lat="46.532814" lon="10.469198">
        <ele>2352.8</ele>
      </trkpt>
      <trkpt lat="46.532844" lon="10.46885">
        <ele>2360.42</ele>
      </trkpt>
      <trkpt lat="46.532847" lon="10.468701">
        <ele>2362.81</ele>
      </trkpt>
      <trkpt lat="46.532817" lon="10.467409">
        <ele>2377.93</ele>
      </trkpt>
      <trkpt lat="46.532791" lon="10.466641">
        <ele>2384.28</ele>
      </trkpt>
      <trkpt lat="46.5328" lon="10.466211">
        <ele>2392.46</ele>
      </trkpt>
      <trkpt lat="46.532772" lon="10.466058">
        <ele>2393.39</ele>
      </trkpt>
      <trkpt lat="46.532747" lon="10.465982">
        <ele>2393.25</ele>
      </trkpt>
      <trkpt lat="46.532653" lon="10.465728">
        <ele>2394.17</ele>
      </trkpt>
      <trkpt lat="46.532134" lon="10.464432">
        <ele>2398.87</ele>
      </trkpt>
      <trkpt lat="46.532035" lon="10.464158">
        <ele>2401.08</ele>
      </trkpt>
      <trkpt lat="46.5319" lon="10.463691">
        <ele>2406.51</ele>
      </trkpt>
      <trkpt lat="46.531831" lon="10.46352">
        <ele>2408.68</ele>
      </trkpt>
      <trkpt lat="46.531827" lon="10.463467">
        <ele>2409.94</ele>
      </trkpt>
      <trkpt lat="46.531841" lon="10.463432">
        <ele>2411.44</ele>
      </trkpt>
      <trkpt lat="46.531875" lon="10.463416">
        <ele>2413.11</ele>
      </trkpt>
      <trkpt lat="46.531903" lon="10.463439">
        <ele>2413.53</ele>
      </trkpt>
      <trkpt lat="46.5321" lon="10.463935">
        <ele>2411.55</ele>
      </trkpt>
      <trkpt lat="46.532213" lon="10.464186">
        <ele>2410.87</ele>
      </trkpt>
      <trkpt lat="46.532351" lon="10.464392">
        <ele>2412.87</ele>
      </trkpt>
      <trkpt lat="46.532517" lon="10.464667">
        <ele>2414.63</ele>
      </trkpt>
      <trkpt lat="46.532555" lon="10.464697">
        <ele>2416.04</ele>
      </trkpt>
      <trkpt lat="46.532568" lon="10.464696">
        <ele>2416.86</ele>
      </trkpt>
      <trkpt lat="46.532587" lon="10.464673">
        <ele>2418.62</ele>
      </trkpt>
      <trkpt lat="46.53259" lon="10.464653">
        <ele>2419.37</ele>
      </trkpt>
      <trkpt lat="46.532578" lon="10.464604">
        <ele>2420.11</ele>
      </trkpt>
      <trkpt lat="46.532438" lon="10.464334">
        <ele>2419.73</ele>
      </trkpt>
      <trkpt lat="46.532341" lon="10.464122">
        <ele>2420.53</ele>
      </trkpt>
      <trkpt lat="46.532305" lon="10.464025">
        <ele>2421.38</ele>
      </trkpt>
      <trkpt lat="46.53224" lon="10.463793">
        <ele>2424.62</ele>
      </trkpt>
      <trkpt lat="46.532073" lon="10.462998">
        <ele>2436.58</ele>
      </trkpt>
      <trkpt lat="46.531997" lon="10.462753">
        <ele>2438.61</ele>
      </trkpt>
      <trkpt lat="46.531904" lon="10.462525">
        <ele>2439.8</ele>
      </trkpt>
      <trkpt lat="46.531741" lon="10.462066">
        <ele>2446.8</ele>
      </trkpt>
      <trkpt lat="46.531617" lon="10.461802">
        <ele>2449.74</ele>
      </trkpt>
      <trkpt lat="46.531095" lon="10.46118">
        <ele>2455.22</ele>
      </trkpt>
      <trkpt lat="46.530943" lon="10.461016">
        <ele>2459.03</ele>
      </trkpt>
      <trkpt lat="46.530923" lon="10.460973">
        <ele>2460.4</ele>
      </trkpt>
      <trkpt lat="46.53092" lon="10.460945">
        <ele>2461.5</ele>
      </trkpt>
      <trkpt lat="46.530932" lon="10.460908">
        <ele>2463.35</ele>
      </trkpt>
      <trkpt lat="46.530945" lon="10.460896">
        <ele>2464.33</ele>
      </trkpt>
      <trkpt lat="46.530974" lon="10.460896">
        <ele>2464.98</ele>
      </trkpt>
      <trkpt lat="46.530993" lon="10.460908">
        <ele>2464.8</ele>
      </trkpt>
      <trkpt lat="46.531164" lon="10.461083">
        <ele>2461.76</ele>
      </trkpt>
      <trkpt lat="46.531308" lon="10.461211">
        <ele>2461.09</ele>
      </trkpt>
      <trkpt lat="46.531704" lon="10.461414">
        <ele>2467.11</ele>
      </trkpt>
      <trkpt lat="46.53182" lon="10.461523">
        <ele>2467.53</ele>
      </trkpt>
      <trkpt lat="46.531929" lon="10.461697">
        <ele>2466.06</ele>
      </trkpt>
      <trkpt lat="46.531996" lon="10.461842">
        <ele>2466.05</ele>
      </trkpt>
      <trkpt lat="46.532191" lon="10.462208">
        <ele>2467.37</ele>
      </trkpt>
      <trkpt lat="46.532231" lon="10.4623">
        <ele>2466.95</ele>
      </trkpt>
      <trkpt lat="46.53244" lon="10.462609">
        <ele>2469.87</ele>
      </trkpt>
      <trkpt lat="46.532523" lon="10.462809">
        <ele>2470.12</ele>
      </trkpt>
      <trkpt lat="46.532577" lon="10.462985">
        <ele>2469.27</ele>
      </trkpt>
      <trkpt lat="46.532651" lon="10.463177">
        <ele>2469.51</ele>
      </trkpt>
      <trkpt lat="46.532807" lon="10.463533">
        <ele>2470.14</ele>
      </trkpt>
      <trkpt lat="46.532944" lon="10.463979">
        <ele>2464.58</ele>
      </trkpt>
      <trkpt lat="46.532969" lon="10.464011">
        <ele>2465.37</ele>
      </trkpt>
      <trkpt lat="46.532996" lon="10.464016">
        <ele>2467.22</ele>
      </trkpt>
      <trkpt lat="46.533012" lon="10.463995">
        <ele>2469.11</ele>
      </trkpt>
      <trkpt lat="46.533011" lon="10.463956">
        <ele>2470.39</ele>
      </trkpt>
      <trkpt lat="46.532931" lon="10.463664">
        <ele>2474.3</ele>
      </trkpt>
      <trkpt lat="46.532732" lon="10.462766">
        <ele>2484.22</ele>
      </trkpt>
      <trkpt lat="46.532569" lon="10.462279">
        <ele>2489.22</ele>
      </trkpt>
      <trkpt lat="46.532501" lon="10.462025">
        <ele>2493.73</ele>
      </trkpt>
      <trkpt lat="46.532455" lon="10.461624">
        <ele>2504.39</ele>
      </trkpt>
      <trkpt lat="46.532424" lon="10.461478">
        <ele>2507.02</ele>
      </trkpt>
      <trkpt lat="46.532379" lon="10.461359">
        <ele>2507.91</ele>
      </trkpt>
      <trkpt lat="46.53222" lon="10.461119">
        <ele>2505.08</ele>
      </trkpt>
      <trkpt lat="46.532192" lon="10.461057">
        <ele>2505.23</ele>
      </trkpt>
      <trkpt lat="46.532108" lon="10.460789">
        <ele>2509.9</ele>
      </trkpt>
      <trkpt lat="46.532046" lon="10.460659">
        <ele>2511.83</ele>
      </trkpt>
      <trkpt lat="46.53201" lon="10.460604">
        <ele>2512.06</ele>
      </trkpt>
      <trkpt lat="46.531883" lon="10.460469">
        <ele>2512.18</ele>
      </trkpt>
      <trkpt lat="46.531746" lon="10.46035">
        <ele>2514.63</ele>
      </trkpt>
      <trkpt lat="46.531346" lon="10.459963">
        <ele>2524.28</ele>
      </trkpt>
      <trkpt lat="46.531217" lon="10.459872">
        <ele>2525.09</ele>
      </trkpt>
      <trkpt lat="46.531154" lon="10.459842">
        <ele>2524.83</ele>
      </trkpt>
      <trkpt lat="46.530846" lon="10.45977">
        <ele>2516.76</ele>
      </trkpt>
      <trkpt lat="46.530791" lon="10.459741">
        <ele>2515.84</ele>
      </trkpt>
      <trkpt lat="46.530669" lon="10.459645">
        <ele>2515.29</ele>
      </trkpt>
      <trkpt lat="46.530402" lon="10.459393">
        <ele>2516.42</ele>
      </trkpt>
      <trkpt lat="46.530386" lon="10.459372">
        <ele>2516.8</ele>
      </trkpt>
      <trkpt lat="46.530374" lon="10.459334">
        <ele>2518.07</ele>
      </trkpt>
      <trkpt lat="46.530377" lon="10.459312">
        <ele>2519.16</ele>
      </trkpt>
      <trkpt lat="46.530395" lon="10.459289">
        <ele>2520.83</ele>
      </trkpt>
      <trkpt lat="46.530427" lon="10.459289">
        <ele>2521.94</ele>
      </trkpt>
      <trkpt lat="46.530514" lon="10.45935">
        <ele>2522.35</ele>
      </trkpt>
      <trkpt lat="46.53069" lon="10.459432">
        <ele>2525.15</ele>
      </trkpt>
      <trkpt lat="46.530937" lon="10.459482">
        <ele>2532.02</ele>
      </trkpt>
      <trkpt lat="46.531383" lon="10.45955">
        <ele>2542.34</ele>
      </trkpt>
      <trkpt lat="46.531502" lon="10.45958">
        <ele>2544.08</ele>
      </trkpt>
      <trkpt lat="46.53186" lon="10.459741">
        <ele>2545.79</ele>
      </trkpt>
      <trkpt lat="46.532094" lon="10.459865">
        <ele>2550.47</ele>
      </trkpt>
      <trkpt lat="46.532262" lon="10.459968">
        <ele>2554.42</ele>
      </trkpt>
      <trkpt lat="46.532416" lon="10.460094">
        <ele>2556.82</ele>
      </trkpt>
      <trkpt lat="46.532482" lon="10.460159">
        <ele>2557.8</ele>
      </trkpt>
      <trkpt lat="46.532594" lon="10.460302">
        <ele>2558.67</ele>
      </trkpt>
      <trkpt lat="46.532688" lon="10.460468">
        <ele>2558.37</ele>
      </trkpt>
      <trkpt lat="46.532898" lon="10.460873">
        <ele>2559.12</ele>
      </trkpt>
      <trkpt lat="46.533011" lon="10.461109">
        <ele>2559.53</ele>
      </trkpt>
      <trkpt lat="46.533088" lon="10.461303">
        <ele>2558.97</ele>
      </trkpt>
      <trkpt lat="46.533113" lon="10.461316">
        <ele>2560.38</ele>
      </trkpt>
      <trkpt lat="46.53313" lon="10.461305">
        <ele>2561.93</ele>
      </trkpt>
      <trkpt lat="46.533137" lon="10.461268">
        <ele>2563.56</ele>
      </trkpt>
      <trkpt lat="46.53313" lon="10.461216">
        <ele>2564.61</ele>
      </trkpt>
      <trkpt lat="46.532932" lon="10.46064">
        <ele>2569.13</ele>
      </trkpt>
      <trkpt lat="46.532768" lon="10.460271">
        <ele>2569.61</ele>
      </trkpt>
      <trkpt lat="46.532628" lon="10.459931">
        <ele>2574.94</ele>
      </trkpt>
      <trkpt lat="46.532467" lon="10.459634">
        <ele>2579.96</ele>
      </trkpt>
      <trkpt lat="46.532393" lon="10.45945">
        <ele>2584.41</ele>
      </trkpt>
      <trkpt lat="46.532344" lon="10.459363">
        <ele>2585.88</ele>
      </trkpt>
      <trkpt lat="46.532213" lon="10.459208">
        <ele>2586.55</ele>
      </trkpt>
      <trkpt lat="46.532105" lon="10.459116">
        <ele>2586.16</ele>
      </trkpt>
      <trkpt lat="46.532047" lon="10.459086">
        <ele>2584.97</ele>
      </trkpt>
      <trkpt lat="46.531706" lon="10.458972">
        <ele>2579.41</ele>
      </trkpt>
      <trkpt lat="46.531395" lon="10.458844">
        <ele>2578.25</ele>
      </trkpt>
      <trkpt lat="46.530842" lon="10.458453">
        <ele>2583.08</ele>
      </trkpt>
      <trkpt lat="46.530606" lon="10.458214">
        <ele>2585.6</ele>
      </trkpt>
      <trkpt lat="46.530336" lon="10.457896">
        <ele>2589.65</ele>
      </trkpt>
      <trkpt lat="46.529926" lon="10.457269">
        <ele>2618.18</ele>
      </trkpt>
      <trkpt lat="46.529909" lon="10.457209">
        <ele>2620.87</ele>
      </trkpt>
      <trkpt lat="46.52991" lon="10.457175">
        <ele>2622.27</ele>
      </trkpt>
      <trkpt lat="46.529936" lon="10.457155">
        <ele>2622.82</ele>
      </trkpt>
      <trkpt lat="46.529964" lon="10.457168">
        <ele>2621.95</ele>
      </trkpt>
      <trkpt lat="46.530231" lon="10.457458">
        <ele>2606.4</ele>
      </trkpt>
      <trkpt lat="46.530332" lon="10.457547">
        <ele>2605.41</ele>
      </trkpt>
      <trkpt lat="46.530663" lon="10.457797">
        <ele>2607.32</ele>
      </trkpt>
      <trkpt lat="46.530939" lon="10.457988">
        <ele>2609.31</ele>
      </trkpt>
      <trkpt lat="46.531091" lon="10.458058">
        <ele>2611.96</ele>
      </trkpt>
      <trkpt lat="46.531677" lon="10.458261">
        <ele>2618.31</ele>
      </trkpt>
      <trkpt lat="46.531729" lon="10.458246">
        <ele>2620.53</ele>
      </trkpt>
      <trkpt lat="46.531738" lon="10.458229">
        <ele>2621.66</ele>
      </trkpt>
      <trkpt lat="46.531739" lon="10.458203">
        <ele>2623.05</ele>
      </trkpt>
      <trkpt lat="46.531733" lon="10.458177">
        <ele>2624.24</ele>
      </trkpt>
      <trkpt lat="46.531709" lon="10.458148">
        <ele>2625.09</ele>
      </trkpt>
      <trkpt lat="46.531541" lon="10.458124">
        <ele>2621.58</ele>
      </trkpt>
      <trkpt lat="46.531491" lon="10.458105">
        <ele>2621.11</ele>
      </trkpt>
      <trkpt lat="46.531187" lon="10.457934">
        <ele>2620.76</ele>
      </trkpt>
      <trkpt lat="46.531019" lon="10.457816">
        <ele>2620.68</ele>
      </trkpt>
      <trkpt lat="46.530839" lon="10.457599">
        <ele>2623.74</ele>
      </trkpt>
      <trkpt lat="46.530705" lon="10.457399">
        <ele>2627.04</ele>
      </trkpt>
      <trkpt lat="46.530421" lon="10.45686">
        <ele>2638.72</ele>
      </trkpt>
      <trkpt lat="46.530329" lon="10.456715">
        <ele>2641.38</ele>
      </trkpt>
      <trkpt lat="46.530288" lon="10.456668">
        <ele>2641.95</ele>
      </trkpt>
      <trkpt lat="46.530064" lon="10.456547">
        <ele>2647.76</ele>
      </trkpt>
      <trkpt lat="46.530042" lon="10.456519">
        <ele>2649.15</ele>
      </trkpt>
      <trkpt lat="46.530035" lon="10.456489">
        <ele>2650.54</ele>
      </trkpt>
      <trkpt lat="46.530041" lon="10.456459">
        <ele>2651.88</ele>
      </trkpt>
      <trkpt lat="46.530058" lon="10.456438">
        <ele>2652.78</ele>
      </trkpt>
      <trkpt lat="46.53009" lon="10.456439">
        <ele>2652.58</ele>
      </trkpt>
      <trkpt lat="46.530363" lon="10.456566">
        <ele>2649.76</ele>
      </trkpt>
      <trkpt lat="46.530513" lon="10.456682">
        <ele>2650.21</ele>
      </trkpt>
      <trkpt lat="46.530638" lon="10.45681">
        <ele>2649.71</ele>
      </trkpt>
      <trkpt lat="46.530711" lon="10.456902">
        <ele>2648.75</ele>
      </trkpt>
      <trkpt lat="46.531104" lon="10.457454">
        <ele>2640.82</ele>
      </trkpt>
      <trkpt lat="46.531168" lon="10.457519">
        <ele>2640.09</ele>
      </trkpt>
      <trkpt lat="46.531203" lon="10.457535">
        <ele>2640.51</ele>
      </trkpt>
      <trkpt lat="46.531232" lon="10.457517">
        <ele>2642.26</ele>
      </trkpt>
      <trkpt lat="46.531238" lon="10.457475">
        <ele>2644.35</ele>
      </trkpt>
      <trkpt lat="46.531231" lon="10.457453">
        <ele>2645.1</ele>
      </trkpt>
      <trkpt lat="46.531118" lon="10.457327">
        <ele>2646.77</ele>
      </trkpt>
      <trkpt lat="46.531053" lon="10.457218">
        <ele>2649</ele>
      </trkpt>
      <trkpt lat="46.530824" lon="10.456677">
        <ele>2662.79</ele>
      </trkpt>
      <trkpt lat="46.530683" lon="10.456481">
        <ele>2665.42</ele>
      </trkpt>
      <trkpt lat="46.530283" lon="10.456118">
        <ele>2668.57</ele>
      </trkpt>
      <trkpt lat="46.530171" lon="10.455978">
        <ele>2674.21</ele>
      </trkpt>
      <trkpt lat="46.530024" lon="10.455768">
        <ele>2683.41</ele>
      </trkpt>
      <trkpt lat="46.529945" lon="10.455701">
        <ele>2686.09</ele>
      </trkpt>
      <trkpt lat="46.529901" lon="10.455687">
        <ele>2686.46</ele>
      </trkpt>
      <trkpt lat="46.529797" lon="10.455693">
        <ele>2685.49</ele>
      </trkpt>
      <trkpt lat="46.52959" lon="10.455726">
        <ele>2682.53</ele>
      </trkpt>
      <trkpt lat="46.529471" lon="10.455757">
        <ele>2680.27</ele>
      </trkpt>
      <trkpt lat="46.529446" lon="10.45575">
        <ele>2680.42</ele>
      </trkpt>
      <trkpt lat="46.52943" lon="10.455726">
        <ele>2681.4</ele>
      </trkpt>
      <trkpt lat="46.529428" lon="10.455682">
        <ele>2683.4</ele>
      </trkpt>
      <trkpt lat="46.529456" lon="10.455655">
        <ele>2684.82</ele>
      </trkpt>
      <trkpt lat="46.529606" lon="10.45561">
        <ele>2688.01</ele>
      </trkpt>
      <trkpt lat="46.529789" lon="10.455534">
        <ele>2692.93</ele>
      </trkpt>
      <trkpt lat="46.52986" lon="10.455512">
        <ele>2694.48</ele>
      </trkpt>
      <trkpt lat="46.529976" lon="10.455496">
        <ele>2696.18</ele>
      </trkpt>
      <trkpt lat="46.530001" lon="10.455482">
        <ele>2697.02</ele>
      </trkpt>
      <trkpt lat="46.530016" lon="10.455444">
        <ele>2698.98</ele>
      </trkpt>
      <trkpt lat="46.530014" lon="10.455403">
        <ele>2700.96</ele>
      </trkpt>
      <trkpt lat="46.530003" lon="10.455376">
        <ele>2702.16</ele>
      </trkpt>
      <trkpt lat="46.529963" lon="10.455361">
        <ele>2702.54</ele>
      </trkpt>
      <trkpt lat="46.529687" lon="10.455436">
        <ele>2696.72</ele>
      </trkpt>
      <trkpt lat="46.529466" lon="10.455473">
        <ele>2693.23</ele>
      </trkpt>
      <trkpt lat="46.529434" lon="10.455446">
        <ele>2694.22</ele>
      </trkpt>
      <trkpt lat="46.529425" lon="10.455409">
        <ele>2695.84</ele>
      </trkpt>
      <trkpt lat="46.529432" lon="10.455363">
        <ele>2698.01</ele>
      </trkpt>
      <trkpt lat="46.529458" lon="10.455335">
        <ele>2699.51</ele>
      </trkpt>
      <trkpt lat="46.529641" lon="10.45531">
        <ele>2702.19</ele>
      </trkpt>
      <trkpt lat="46.530032" lon="10.455223">
        <ele>2709.75</ele>
      </trkpt>
      <trkpt lat="46.530104" lon="10.455219">
        <ele>2710.62</ele>
      </trkpt>
      <trkpt lat="46.530175" lon="10.455272">
        <ele>2708.64</ele>
      </trkpt>
      <trkpt lat="46.530303" lon="10.455417">
        <ele>2703.35</ele>
      </trkpt>
      <trkpt lat="46.530373" lon="10.455473">
        <ele>2702.26</ele>
      </trkpt>
      <trkpt lat="46.530442" lon="10.455515">
        <ele>2701.92</ele>
      </trkpt>
      <trkpt lat="46.530957" lon="10.455711">
        <ele>2705.47</ele>
      </trkpt>
      <trkpt lat="46.531097" lon="10.455756">
        <ele>2707.15</ele>
      </trkpt>
      <trkpt lat="46.531138" lon="10.455782">
        <ele>2707.58</ele>
      </trkpt>
      <trkpt lat="46.531201" lon="10.455848">
        <ele>2707.15</ele>
      </trkpt>
      <trkpt lat="46.531258" lon="10.455936">
        <ele>2705.78</ele>
      </trkpt>
      <trkpt lat="46.5315" lon="10.456426">
        <ele>2698.03</ele>
      </trkpt>
      <trkpt lat="46.531522" lon="10.456447">
        <ele>2698.11</ele>
      </trkpt>
      <trkpt lat="46.531547" lon="10.45645">
        <ele>2698.95</ele>
      </trkpt>
      <trkpt lat="46.531568" lon="10.456431">
        <ele>2700.48</ele>
      </trkpt>
      <trkpt lat="46.531582" lon="10.456398">
        <ele>2702.16</ele>
      </trkpt>
      <trkpt lat="46.531574" lon="10.456343">
        <ele>2703.85</ele>
      </trkpt>
      <trkpt lat="46.531471" lon="10.456159">
        <ele>2706.3</ele>
      </trkpt>
      <trkpt lat="46.531362" lon="10.455841">
        <ele>2713.77</ele>
      </trkpt>
      <trkpt lat="46.531299" lon="10.455695">
        <ele>2717.65</ele>
      </trkpt>
      <trkpt lat="46.531224" lon="10.455595">
        <ele>2719.12</ele>
      </trkpt>
      <trkpt lat="46.531091" lon="10.455469">
        <ele>2719.62</ele>
      </trkpt>
      <trkpt lat="46.530892" lon="10.455307">
        <ele>2722.23</ele>
      </trkpt>
      <trkpt lat="46.530633" lon="10.455125">
        <ele>2724.84</ele>
      </trkpt>
      <trkpt lat="46.530594" lon="10.455089">
        <ele>2725.7</ele>
      </trkpt>
      <trkpt lat="46.530552" lon="10.455037">
        <ele>2727.3</ele>
      </trkpt>
      <trkpt lat="46.53035" lon="10.454734">
        <ele>2737.79</ele>
      </trkpt>
      <trkpt lat="46.53028" lon="10.454688">
        <ele>2738.61</ele>
      </trkpt>
      <trkpt lat="46.530067" lon="10.45464">
        <ele>2738.17</ele>
      </trkpt>
      <trkpt lat="46.529738" lon="10.454546">
        <ele>2738.53</ele>
      </trkpt>
      <trkpt lat="46.529355" lon="10.454411">
        <ele>2740.72</ele>
      </trkpt>
      <trkpt lat="46.529203" lon="10.454338">
        <ele>2743.75</ele>
      </trkpt>
      <trkpt lat="46.529106" lon="10.454242">
        <ele>2746.88</ele>
      </trkpt>
      <trkpt lat="46.528814" lon="10.453764">
        <ele>2753.38</ele>
      </trkpt>
      <trkpt lat="46.52868" lon="10.453562">
        <ele>2755.02</ele>
      </trkpt>
      <trkpt lat="46.528638" lon="10.453449">
        <ele>2756.11</ele>
      </trkpt>
      <trkpt lat="46.528625" lon="10.453369">
        <ele>2756.79</ele>
      </trkpt>
      <trkpt lat="46.528618" lon="10.453206">
        <ele>2757.98</ele>
      </trkpt>
      <trkpt lat="46.528627" lon="10.453119">
        <ele>2758.72</ele>
      </trkpt>
    </trkseg>
  </trk>
</gpx>
