<?xml version="1.0" encoding="UTF-8"?>
<gpx creator="https://gpx.studio" version="1.1" xmlns="http://www.topografix.com/GPX/1/1" xmlns:xsi="http://www.w3.org/2001/XMLSchema-instance" xsi:schemaLocation="http://www.topografix.com/GPX/1/1 http://www.topografix.com/GPX/1/1/gpx.xsd http://www.garmin.com/xmlschemas/GpxExtensions/v3 http://www.garmin.com/xmlschemas/GpxExtensionsv3.xsd http://www.garmin.com/xmlschemas/TrackPointExtension/v1 http://www.garmin.com/xmlschemas/TrackPointExtensionv1.xsd http://www.garmin.com/xmlschemas/PowerExtension/v1 http://www.garmin.com/xmlschemas/PowerExtensionv1.xsd http://www.topografix.com/GPX/gpx_style/0/2 http://www.topografix.com/GPX/gpx_style/0/2/gpx_style.xsd" xmlns:gpxtpx="http://www.garmin.com/xmlschemas/TrackPointExtension/v1" xmlns:gpxx="http://www.garmin.com/xmlschemas/GpxExtensions/v3" xmlns:gpxpx="http://www.garmin.com/xmlschemas/PowerExtension/v1" xmlns:gpx_style="http://www.topografix.com/GPX/gpx_style/0/2">
  <metadata>
    <name>Ventoux</name>
    <author>
      <name>gpx.studio</name>
      <link href="https://gpx.studio"/>
    </author>
  </metadata>
  <trk>
    <name>Ventoux</name>
    <trkseg>
      <trkpt lat="44.124048" lon="5.186191">
        <ele>314</ele>
      </trkpt>
      <trkpt lat="44.123485" lon="5.188656">
        <ele>324.28</ele>
      </trkpt>
      <trkpt lat="44.123423" lon="5.188852">
        <ele>325.82</ele>
      </trkpt>
      <trkpt lat="44.123357" lon="5.18902">
        <ele>327.07</ele>
      </trkpt>
      <trkpt lat="44.123318" lon="5.189097">
        <ele>327.6</ele>
      </trkpt>
      <trkpt lat="44.123268" lon="5.189172">
        <ele>328.07</ele>
      </trkpt>
      <trkpt lat="44.123341" lon="5.189306">
        <ele>329.2</ele>
      </trkpt>
      <trkpt lat="44.123472" lon="5.189489">
        <ele>330.77</ele>
      </trkpt>
      <trkpt lat="44.123535" lon="5.189523">
        <ele>331.2</ele>
      </trkpt>
      <trkpt lat="44.124049" lon="5.190336">
        <ele>336.02</ele>
      </trkpt>
      <trkpt lat="44.124144" lon="5.190554">
        <ele>336.22</ele>
      </trkpt>
      <trkpt lat="44.124208" lon="5.190788">
        <ele>336.59</ele>
      </trkpt>
      <trkpt lat="44.124258" lon="5.191048">
        <ele>337.26</ele>
      </trkpt>
      <trkpt lat="44.124271" lon="5.191307">
        <ele>337.91</ele>
      </trkpt>
      <trkpt lat="44.124264" lon="5.191543">
        <ele>338.4</ele>
      </trkpt>
      <trkpt lat="44.124192" lon="5.19194">
        <ele>339.51</ele>
      </trkpt>
      <trkpt lat="44.124105" lon="5.192313">
        <ele>340.71</ele>
      </trkpt>
      <trkpt lat="44.124076" lon="5.192385">
        <ele>340.8</ele>
      </trkpt>
      <trkpt lat="44.124" lon="5.192511">
        <ele>340.8</ele>
      </trkpt>
      <trkpt lat="44.123965" lon="5.192616">
        <ele>341.31</ele>
      </trkpt>
      <trkpt lat="44.123946" lon="5.192736">
        <ele>342.05</ele>
      </trkpt>
      <trkpt lat="44.123937" lon="5.19297">
        <ele>343.59</ele>
      </trkpt>
      <trkpt lat="44.12395" lon="5.193219">
        <ele>345.4</ele>
      </trkpt>
      <trkpt lat="44.124058" lon="5.194198">
        <ele>352.27</ele>
      </trkpt>
      <trkpt lat="44.124061" lon="5.194299">
        <ele>352.88</ele>
      </trkpt>
      <trkpt lat="44.124042" lon="5.194398">
        <ele>353.33</ele>
      </trkpt>
      <trkpt lat="44.12354" lon="5.195226">
        <ele>354.6</ele>
      </trkpt>
      <trkpt lat="44.123124" lon="5.195939">
        <ele>355.97</ele>
      </trkpt>
      <trkpt lat="44.122975" lon="5.196149">
        <ele>356.17</ele>
      </trkpt>
      <trkpt lat="44.12285" lon="5.196353">
        <ele>356.55</ele>
      </trkpt>
      <trkpt lat="44.122717" lon="5.196656">
        <ele>357.51</ele>
      </trkpt>
      <trkpt lat="44.122648" lon="5.196968">
        <ele>359.14</ele>
      </trkpt>
      <trkpt lat="44.122616" lon="5.197195">
        <ele>360.42</ele>
      </trkpt>
      <trkpt lat="44.122571" lon="5.197433">
        <ele>361.67</ele>
      </trkpt>
      <trkpt lat="44.122419" lon="5.198045">
        <ele>363.71</ele>
      </trkpt>
      <trkpt lat="44.122306" lon="5.198589">
        <ele>365.01</ele>
      </trkpt>
      <trkpt lat="44.122042" lon="5.199735">
        <ele>365.68</ele>
      </trkpt>
      <trkpt lat="44.121906" lon="5.200394">
        <ele>365.28</ele>
      </trkpt>
      <trkpt lat="44.121898" lon="5.200569">
        <ele>365.2</ele>
      </trkpt>
      <trkpt lat="44.1219" lon="5.200781">
        <ele>365.2</ele>
      </trkpt>
      <trkpt lat="44.121873" lon="5.201259">
        <ele>364.17</ele>
      </trkpt>
      <trkpt lat="44.121814" lon="5.201937">
        <ele>363.79</ele>
      </trkpt>
      <trkpt lat="44.12171" lon="5.202435">
        <ele>365.41</ele>
      </trkpt>
      <trkpt lat="44.121708" lon="5.202559">
        <ele>365.86</ele>
      </trkpt>
      <trkpt lat="44.121728" lon="5.202661">
        <ele>366.17</ele>
      </trkpt>
      <trkpt lat="44.121855" lon="5.20282">
        <ele>366.49</ele>
      </trkpt>
      <trkpt lat="44.121965" lon="5.203003">
        <ele>366.85</ele>
      </trkpt>
      <trkpt lat="44.122059" lon="5.203208">
        <ele>367.26</ele>
      </trkpt>
      <trkpt lat="44.122137" lon="5.203439">
        <ele>367.76</ele>
      </trkpt>
      <trkpt lat="44.122148" lon="5.203755">
        <ele>368.77</ele>
      </trkpt>
      <trkpt lat="44.122147" lon="5.204269">
        <ele>370.54</ele>
      </trkpt>
      <trkpt lat="44.122309" lon="5.205062">
        <ele>373.3</ele>
      </trkpt>
      <trkpt lat="44.122396" lon="5.205589">
        <ele>375.61</ele>
      </trkpt>
      <trkpt lat="44.122371" lon="5.206532">
        <ele>378.58</ele>
      </trkpt>
      <trkpt lat="44.122435" lon="5.207086">
        <ele>380.85</ele>
      </trkpt>
      <trkpt lat="44.122349" lon="5.207705">
        <ele>383</ele>
      </trkpt>
      <trkpt lat="44.12227" lon="5.208137">
        <ele>383.22</ele>
      </trkpt>
      <trkpt lat="44.122214" lon="5.208508">
        <ele>383.87</ele>
      </trkpt>
      <trkpt lat="44.122205" lon="5.208859">
        <ele>384.82</ele>
      </trkpt>
      <trkpt lat="44.122241" lon="5.209558">
        <ele>386.46</ele>
      </trkpt>
      <trkpt lat="44.122311" lon="5.210435">
        <ele>388.72</ele>
      </trkpt>
      <trkpt lat="44.122315" lon="5.211085">
        <ele>391.85</ele>
      </trkpt>
      <trkpt lat="44.122294" lon="5.211367">
        <ele>394.06</ele>
      </trkpt>
      <trkpt lat="44.122229" lon="5.2117">
        <ele>397.03</ele>
      </trkpt>
      <trkpt lat="44.12205" lon="5.21232">
        <ele>401.92</ele>
      </trkpt>
      <trkpt lat="44.121993" lon="5.212755">
        <ele>404.01</ele>
      </trkpt>
      <trkpt lat="44.121958" lon="5.212921">
        <ele>404.61</ele>
      </trkpt>
      <trkpt lat="44.121771" lon="5.213457">
        <ele>406.46</ele>
      </trkpt>
      <trkpt lat="44.121273" lon="5.213284">
        <ele>405.24</ele>
      </trkpt>
      <trkpt lat="44.121169" lon="5.213273">
        <ele>404.94</ele>
      </trkpt>
      <trkpt lat="44.121729" lon="5.214344">
        <ele>411.23</ele>
      </trkpt>
      <trkpt lat="44.121884" lon="5.214704">
        <ele>413.79</ele>
      </trkpt>
      <trkpt lat="44.122111" lon="5.215429">
        <ele>417.61</ele>
      </trkpt>
      <trkpt lat="44.122192" lon="5.215729">
        <ele>419</ele>
      </trkpt>
      <trkpt lat="44.122211" lon="5.215918">
        <ele>419.91</ele>
      </trkpt>
      <trkpt lat="44.122206" lon="5.216079">
        <ele>420.74</ele>
      </trkpt>
      <trkpt lat="44.122182" lon="5.216232">
        <ele>421.51</ele>
      </trkpt>
      <trkpt lat="44.122131" lon="5.21644">
        <ele>422.57</ele>
      </trkpt>
      <trkpt lat="44.121396" lon="5.219055">
        <ele>440.45</ele>
      </trkpt>
      <trkpt lat="44.121196" lon="5.219685">
        <ele>442.25</ele>
      </trkpt>
      <trkpt lat="44.120628" lon="5.221194">
        <ele>446.1</ele>
      </trkpt>
      <trkpt lat="44.120457" lon="5.221707">
        <ele>447.1</ele>
      </trkpt>
      <trkpt lat="44.120297" lon="5.222332">
        <ele>449.9</ele>
      </trkpt>
      <trkpt lat="44.120267" lon="5.22251">
        <ele>450.79</ele>
      </trkpt>
      <trkpt lat="44.120269" lon="5.222771">
        <ele>451.41</ele>
      </trkpt>
      <trkpt lat="44.120349" lon="5.223263">
        <ele>452.98</ele>
      </trkpt>
      <trkpt lat="44.120503" lon="5.224069">
        <ele>456.69</ele>
      </trkpt>
      <trkpt lat="44.120527" lon="5.224277">
        <ele>457.56</ele>
      </trkpt>
      <trkpt lat="44.120529" lon="5.224445">
        <ele>458.33</ele>
      </trkpt>
      <trkpt lat="44.120497" lon="5.224793">
        <ele>459.85</ele>
      </trkpt>
      <trkpt lat="44.120245" lon="5.226798">
        <ele>471.68</ele>
      </trkpt>
      <trkpt lat="44.120204" lon="5.227222">
        <ele>472.37</ele>
      </trkpt>
      <trkpt lat="44.120198" lon="5.227379">
        <ele>472.61</ele>
      </trkpt>
      <trkpt lat="44.120213" lon="5.227784">
        <ele>472.51</ele>
      </trkpt>
      <trkpt lat="44.120238" lon="5.227967">
        <ele>472.4</ele>
      </trkpt>
      <trkpt lat="44.120287" lon="5.227963">
        <ele>472.91</ele>
      </trkpt>
      <trkpt lat="44.12033" lon="5.227989">
        <ele>473.31</ele>
      </trkpt>
      <trkpt lat="44.120362" lon="5.228053">
        <ele>473.55</ele>
      </trkpt>
      <trkpt lat="44.120405" lon="5.228239">
        <ele>473.78</ele>
      </trkpt>
      <trkpt lat="44.120555" lon="5.228586">
        <ele>476.09</ele>
      </trkpt>
      <trkpt lat="44.120674" lon="5.228818">
        <ele>477.95</ele>
      </trkpt>
      <trkpt lat="44.121035" lon="5.229591">
        <ele>486.99</ele>
      </trkpt>
      <trkpt lat="44.121248" lon="5.230127">
        <ele>493.31</ele>
      </trkpt>
      <trkpt lat="44.121514" lon="5.230746">
        <ele>497.55</ele>
      </trkpt>
      <trkpt lat="44.121555" lon="5.230942">
        <ele>498.88</ele>
      </trkpt>
      <trkpt lat="44.121575" lon="5.231262">
        <ele>501.7</ele>
      </trkpt>
      <trkpt lat="44.121574" lon="5.231851">
        <ele>506.94</ele>
      </trkpt>
      <trkpt lat="44.121587" lon="5.231969">
        <ele>508.27</ele>
      </trkpt>
      <trkpt lat="44.121637" lon="5.232196">
        <ele>510.97</ele>
      </trkpt>
      <trkpt lat="44.121791" lon="5.232711">
        <ele>517.93</ele>
      </trkpt>
      <trkpt lat="44.121896" lon="5.233015">
        <ele>522.77</ele>
      </trkpt>
      <trkpt lat="44.121727" lon="5.233169">
        <ele>524.83</ele>
      </trkpt>
      <trkpt lat="44.121534" lon="5.233449">
        <ele>528.74</ele>
      </trkpt>
      <trkpt lat="44.12146" lon="5.233525">
        <ele>529.08</ele>
      </trkpt>
      <trkpt lat="44.121509" lon="5.233679">
        <ele>530.87</ele>
      </trkpt>
      <trkpt lat="44.121453" lon="5.233823">
        <ele>531.98</ele>
      </trkpt>
      <trkpt lat="44.121397" lon="5.234014">
        <ele>533.61</ele>
      </trkpt>
      <trkpt lat="44.121324" lon="5.234191">
        <ele>535.14</ele>
      </trkpt>
      <trkpt lat="44.121284" lon="5.234204">
        <ele>535.13</ele>
      </trkpt>
      <trkpt lat="44.121103" lon="5.234344">
        <ele>535.99</ele>
      </trkpt>
      <trkpt lat="44.121049" lon="5.234416">
        <ele>536.54</ele>
      </trkpt>
      <trkpt lat="44.120922" lon="5.234489">
        <ele>536.75</ele>
      </trkpt>
      <trkpt lat="44.120854" lon="5.234585">
        <ele>537.43</ele>
      </trkpt>
      <trkpt lat="44.120833" lon="5.234679">
        <ele>538.27</ele>
      </trkpt>
      <trkpt lat="44.120816" lon="5.235041">
        <ele>541.8</ele>
      </trkpt>
      <trkpt lat="44.120789" lon="5.235106">
        <ele>542.42</ele>
      </trkpt>
      <trkpt lat="44.120787" lon="5.235181">
        <ele>543.32</ele>
      </trkpt>
      <trkpt lat="44.120847" lon="5.23521">
        <ele>544.05</ele>
      </trkpt>
      <trkpt lat="44.120849" lon="5.235261">
        <ele>544.68</ele>
      </trkpt>
      <trkpt lat="44.120812" lon="5.235366">
        <ele>545.73</ele>
      </trkpt>
      <trkpt lat="44.120831" lon="5.235478">
        <ele>547.22</ele>
      </trkpt>
      <trkpt lat="44.120875" lon="5.235532">
        <ele>548.18</ele>
      </trkpt>
      <trkpt lat="44.120889" lon="5.235594">
        <ele>549.03</ele>
      </trkpt>
      <trkpt lat="44.120931" lon="5.235631">
        <ele>549.78</ele>
      </trkpt>
      <trkpt lat="44.120941" lon="5.23573">
        <ele>551.07</ele>
      </trkpt>
      <trkpt lat="44.120999" lon="5.235803">
        <ele>552.38</ele>
      </trkpt>
      <trkpt lat="44.12101" lon="5.235991">
        <ele>554.66</ele>
      </trkpt>
      <trkpt lat="44.121053" lon="5.236044">
        <ele>555.58</ele>
      </trkpt>
      <trkpt lat="44.121031" lon="5.236149">
        <ele>556.6</ele>
      </trkpt>
      <trkpt lat="44.121047" lon="5.236216">
        <ele>557.48</ele>
      </trkpt>
      <trkpt lat="44.121182" lon="5.236288">
        <ele>559.35</ele>
      </trkpt>
      <trkpt lat="44.121184" lon="5.236439">
        <ele>561.09</ele>
      </trkpt>
      <trkpt lat="44.121243" lon="5.236522">
        <ele>562.53</ele>
      </trkpt>
      <trkpt lat="44.121222" lon="5.236605">
        <ele>563.32</ele>
      </trkpt>
      <trkpt lat="44.121228" lon="5.236734">
        <ele>564.86</ele>
      </trkpt>
      <trkpt lat="44.12118" lon="5.236862">
        <ele>565.94</ele>
      </trkpt>
      <trkpt lat="44.121239" lon="5.236932">
        <ele>567.26</ele>
      </trkpt>
      <trkpt lat="44.121261" lon="5.237042">
        <ele>568.72</ele>
      </trkpt>
      <trkpt lat="44.121203" lon="5.237222">
        <ele>570.28</ele>
      </trkpt>
      <trkpt lat="44.121143" lon="5.237262">
        <ele>570.2</ele>
      </trkpt>
      <trkpt lat="44.121103" lon="5.237439">
        <ele>571.84</ele>
      </trkpt>
      <trkpt lat="44.120985" lon="5.237638">
        <ele>573.07</ele>
      </trkpt>
      <trkpt lat="44.120949" lon="5.237667">
        <ele>573.1</ele>
      </trkpt>
      <trkpt lat="44.120968" lon="5.237772">
        <ele>574.57</ele>
      </trkpt>
      <trkpt lat="44.120935" lon="5.237847">
        <ele>575.22</ele>
      </trkpt>
      <trkpt lat="44.120929" lon="5.237919">
        <ele>576.07</ele>
      </trkpt>
      <trkpt lat="44.120972" lon="5.237978">
        <ele>577.16</ele>
      </trkpt>
      <trkpt lat="44.120966" lon="5.238026">
        <ele>577.71</ele>
      </trkpt>
      <trkpt lat="44.120783" lon="5.23819">
        <ele>578.33</ele>
      </trkpt>
      <trkpt lat="44.120764" lon="5.238324">
        <ele>579.92</ele>
      </trkpt>
      <trkpt lat="44.120731" lon="5.238421">
        <ele>581</ele>
      </trkpt>
      <trkpt lat="44.120741" lon="5.238485">
        <ele>582</ele>
      </trkpt>
      <trkpt lat="44.120719" lon="5.238641">
        <ele>584.09</ele>
      </trkpt>
      <trkpt lat="44.120791" lon="5.238649">
        <ele>584.72</ele>
      </trkpt>
      <trkpt lat="44.120895" lon="5.238697">
        <ele>586.16</ele>
      </trkpt>
      <trkpt lat="44.120902" lon="5.238767">
        <ele>587.22</ele>
      </trkpt>
      <trkpt lat="44.120831" lon="5.238941">
        <ele>589.21</ele>
      </trkpt>
      <trkpt lat="44.120862" lon="5.238933">
        <ele>589.32</ele>
      </trkpt>
      <trkpt lat="44.120855" lon="5.239059">
        <ele>591.08</ele>
      </trkpt>
      <trkpt lat="44.120734" lon="5.239046">
        <ele>590.03</ele>
      </trkpt>
      <trkpt lat="44.120634" lon="5.239057">
        <ele>589.23</ele>
      </trkpt>
      <trkpt lat="44.120525" lon="5.239085">
        <ele>588.36</ele>
      </trkpt>
      <trkpt lat="44.120441" lon="5.239172">
        <ele>588.58</ele>
      </trkpt>
      <trkpt lat="44.120351" lon="5.239459">
        <ele>590.94</ele>
      </trkpt>
      <trkpt lat="44.120347" lon="5.239567">
        <ele>592.16</ele>
      </trkpt>
      <trkpt lat="44.120374" lon="5.239663">
        <ele>593.59</ele>
      </trkpt>
      <trkpt lat="44.120405" lon="5.239728">
        <ele>594.66</ele>
      </trkpt>
      <trkpt lat="44.120399" lon="5.2398">
        <ele>595.44</ele>
      </trkpt>
      <trkpt lat="44.120301" lon="5.240328">
        <ele>600.94</ele>
      </trkpt>
      <trkpt lat="44.120251" lon="5.240479">
        <ele>602.32</ele>
      </trkpt>
      <trkpt lat="44.119941" lon="5.240808">
        <ele>603.15</ele>
      </trkpt>
      <trkpt lat="44.119744" lon="5.241071">
        <ele>603.58</ele>
      </trkpt>
      <trkpt lat="44.119644" lon="5.241299">
        <ele>604.84</ele>
      </trkpt>
      <trkpt lat="44.119544" lon="5.241393">
        <ele>604.83</ele>
      </trkpt>
      <trkpt lat="44.119417" lon="5.24149">
        <ele>604.7</ele>
      </trkpt>
      <trkpt lat="44.119231" lon="5.241571">
        <ele>603.98</ele>
      </trkpt>
      <trkpt lat="44.119201" lon="5.241713">
        <ele>605.59</ele>
      </trkpt>
      <trkpt lat="44.119068" lon="5.242131">
        <ele>609.44</ele>
      </trkpt>
      <trkpt lat="44.11896" lon="5.24244">
        <ele>612.13</ele>
      </trkpt>
      <trkpt lat="44.118881" lon="5.242786">
        <ele>615.35</ele>
      </trkpt>
      <trkpt lat="44.118787" lon="5.242968">
        <ele>616.33</ele>
      </trkpt>
      <trkpt lat="44.118554" lon="5.243371">
        <ele>617.82</ele>
      </trkpt>
      <trkpt lat="44.11823" lon="5.243754">
        <ele>615.94</ele>
      </trkpt>
      <trkpt lat="44.11808" lon="5.24398">
        <ele>614.62</ele>
      </trkpt>
      <trkpt lat="44.117996" lon="5.244178">
        <ele>614.36</ele>
      </trkpt>
      <trkpt lat="44.117969" lon="5.2445">
        <ele>615.22</ele>
      </trkpt>
      <trkpt lat="44.118003" lon="5.245176">
        <ele>618.46</ele>
      </trkpt>
      <trkpt lat="44.118015" lon="5.245621">
        <ele>620.37</ele>
      </trkpt>
      <trkpt lat="44.118092" lon="5.246238">
        <ele>623.51</ele>
      </trkpt>
      <trkpt lat="44.118259" lon="5.246766">
        <ele>626.98</ele>
      </trkpt>
      <trkpt lat="44.118365" lon="5.246994">
        <ele>631.45</ele>
      </trkpt>
      <trkpt lat="44.118494" lon="5.247187">
        <ele>634.94</ele>
      </trkpt>
      <trkpt lat="44.118631" lon="5.247322">
        <ele>637.19</ele>
      </trkpt>
      <trkpt lat="44.11872" lon="5.247437">
        <ele>638.53</ele>
      </trkpt>
      <trkpt lat="44.11877" lon="5.247544">
        <ele>639.45</ele>
      </trkpt>
      <trkpt lat="44.118795" lon="5.247646">
        <ele>641.19</ele>
      </trkpt>
      <trkpt lat="44.118772" lon="5.247759">
        <ele>642.98</ele>
      </trkpt>
      <trkpt lat="44.118743" lon="5.247819">
        <ele>643.89</ele>
      </trkpt>
      <trkpt lat="44.11885" lon="5.247919">
        <ele>645.84</ele>
      </trkpt>
      <trkpt lat="44.118969" lon="5.247967">
        <ele>647</ele>
      </trkpt>
      <trkpt lat="44.119408" lon="5.248072">
        <ele>651.71</ele>
      </trkpt>
      <trkpt lat="44.119486" lon="5.248112">
        <ele>652.65</ele>
      </trkpt>
      <trkpt lat="44.119561" lon="5.248176">
        <ele>653.66</ele>
      </trkpt>
      <trkpt lat="44.119755" lon="5.248375">
        <ele>655.78</ele>
      </trkpt>
      <trkpt lat="44.119997" lon="5.248533">
        <ele>660.62</ele>
      </trkpt>
      <trkpt lat="44.120225" lon="5.24864">
        <ele>664.58</ele>
      </trkpt>
      <trkpt lat="44.120271" lon="5.248653">
        <ele>665.18</ele>
      </trkpt>
      <trkpt lat="44.120333" lon="5.248654">
        <ele>665.68</ele>
      </trkpt>
      <trkpt lat="44.120508" lon="5.248623">
        <ele>666.47</ele>
      </trkpt>
      <trkpt lat="44.120551" lon="5.248627">
        <ele>666.88</ele>
      </trkpt>
      <trkpt lat="44.120591" lon="5.248643">
        <ele>667.45</ele>
      </trkpt>
      <trkpt lat="44.120651" lon="5.24869">
        <ele>668.65</ele>
      </trkpt>
      <trkpt lat="44.120728" lon="5.248732">
        <ele>670.08</ele>
      </trkpt>
      <trkpt lat="44.120784" lon="5.248748">
        <ele>670.99</ele>
      </trkpt>
      <trkpt lat="44.120944" lon="5.248746">
        <ele>672.87</ele>
      </trkpt>
      <trkpt lat="44.121009" lon="5.248763">
        <ele>673.85</ele>
      </trkpt>
      <trkpt lat="44.121072" lon="5.248801">
        <ele>674.99</ele>
      </trkpt>
      <trkpt lat="44.121125" lon="5.248849">
        <ele>676.07</ele>
      </trkpt>
      <trkpt lat="44.121183" lon="5.248928">
        <ele>677.41</ele>
      </trkpt>
      <trkpt lat="44.121313" lon="5.249279">
        <ele>682.11</ele>
      </trkpt>
      <trkpt lat="44.121346" lon="5.249332">
        <ele>683.34</ele>
      </trkpt>
      <trkpt lat="44.12139" lon="5.249367">
        <ele>684.27</ele>
      </trkpt>
      <trkpt lat="44.121446" lon="5.24938">
        <ele>684.85</ele>
      </trkpt>
      <trkpt lat="44.121503" lon="5.249373">
        <ele>685.07</ele>
      </trkpt>
      <trkpt lat="44.121596" lon="5.249331">
        <ele>684.69</ele>
      </trkpt>
      <trkpt lat="44.121746" lon="5.24923">
        <ele>683.47</ele>
      </trkpt>
      <trkpt lat="44.121905" lon="5.249151">
        <ele>683.92</ele>
      </trkpt>
      <trkpt lat="44.121982" lon="5.24914">
        <ele>684.39</ele>
      </trkpt>
      <trkpt lat="44.122071" lon="5.24915">
        <ele>684.87</ele>
      </trkpt>
      <trkpt lat="44.12215" lon="5.24919">
        <ele>685.12</ele>
      </trkpt>
      <trkpt lat="44.122217" lon="5.249246">
        <ele>685.96</ele>
      </trkpt>
      <trkpt lat="44.122289" lon="5.249356">
        <ele>688.04</ele>
      </trkpt>
      <trkpt lat="44.123377" lon="5.251239">
        <ele>720.42</ele>
      </trkpt>
      <trkpt lat="44.12454" lon="5.253203">
        <ele>737.66</ele>
      </trkpt>
      <trkpt lat="44.124626" lon="5.253378">
        <ele>738.69</ele>
      </trkpt>
      <trkpt lat="44.12467" lon="5.253528">
        <ele>740.16</ele>
      </trkpt>
      <trkpt lat="44.124688" lon="5.253691">
        <ele>742.39</ele>
      </trkpt>
      <trkpt lat="44.12469" lon="5.253904">
        <ele>745.73</ele>
      </trkpt>
      <trkpt lat="44.124649" lon="5.255033">
        <ele>757.88</ele>
      </trkpt>
      <trkpt lat="44.124647" lon="5.255215">
        <ele>759.49</ele>
      </trkpt>
      <trkpt lat="44.124662" lon="5.255443">
        <ele>761.28</ele>
      </trkpt>
      <trkpt lat="44.124698" lon="5.255732">
        <ele>763.4</ele>
      </trkpt>
      <trkpt lat="44.12476" lon="5.256018">
        <ele>765.17</ele>
      </trkpt>
      <trkpt lat="44.125114" lon="5.257517">
        <ele>773.78</ele>
      </trkpt>
      <trkpt lat="44.125146" lon="5.257701">
        <ele>774.44</ele>
      </trkpt>
      <trkpt lat="44.125148" lon="5.257849">
        <ele>775.42</ele>
      </trkpt>
      <trkpt lat="44.125135" lon="5.257981">
        <ele>776.57</ele>
      </trkpt>
      <trkpt lat="44.125105" lon="5.258103">
        <ele>777.97</ele>
      </trkpt>
      <trkpt lat="44.125053" lon="5.258232">
        <ele>779.76</ele>
      </trkpt>
      <trkpt lat="44.124936" lon="5.258419">
        <ele>782.74</ele>
      </trkpt>
      <trkpt lat="44.124495" lon="5.258999">
        <ele>788.83</ele>
      </trkpt>
      <trkpt lat="44.124429" lon="5.25911">
        <ele>790.05</ele>
      </trkpt>
      <trkpt lat="44.124393" lon="5.25921">
        <ele>790.98</ele>
      </trkpt>
      <trkpt lat="44.12437" lon="5.259317">
        <ele>791.44</ele>
      </trkpt>
      <trkpt lat="44.124346" lon="5.259514">
        <ele>792.18</ele>
      </trkpt>
      <trkpt lat="44.124296" lon="5.260601">
        <ele>800.18</ele>
      </trkpt>
      <trkpt lat="44.124321" lon="5.260804">
        <ele>801.83</ele>
      </trkpt>
      <trkpt lat="44.124374" lon="5.260997">
        <ele>802.63</ele>
      </trkpt>
      <trkpt lat="44.124433" lon="5.261154">
        <ele>802.91</ele>
      </trkpt>
      <trkpt lat="44.124526" lon="5.261363">
        <ele>803.11</ele>
      </trkpt>
      <trkpt lat="44.124561" lon="5.261513">
        <ele>803.85</ele>
      </trkpt>
      <trkpt lat="44.124576" lon="5.261633">
        <ele>804.66</ele>
      </trkpt>
      <trkpt lat="44.124573" lon="5.261762">
        <ele>805.75</ele>
      </trkpt>
      <trkpt lat="44.124556" lon="5.261892">
        <ele>806.96</ele>
      </trkpt>
      <trkpt lat="44.124325" lon="5.263009">
        <ele>816.43</ele>
      </trkpt>
      <trkpt lat="44.124297" lon="5.263209">
        <ele>817.29</ele>
      </trkpt>
      <trkpt lat="44.124285" lon="5.263423">
        <ele>818.05</ele>
      </trkpt>
      <trkpt lat="44.124256" lon="5.263696">
        <ele>819.66</ele>
      </trkpt>
      <trkpt lat="44.124227" lon="5.263847">
        <ele>820.63</ele>
      </trkpt>
      <trkpt lat="44.124192" lon="5.26397">
        <ele>821.52</ele>
      </trkpt>
      <trkpt lat="44.124003" lon="5.264468">
        <ele>825.68</ele>
      </trkpt>
      <trkpt lat="44.123969" lon="5.26458">
        <ele>826.16</ele>
      </trkpt>
      <trkpt lat="44.123949" lon="5.264725">
        <ele>827.02</ele>
      </trkpt>
      <trkpt lat="44.123959" lon="5.264897">
        <ele>828.34</ele>
      </trkpt>
      <trkpt lat="44.123994" lon="5.265035">
        <ele>829.68</ele>
      </trkpt>
      <trkpt lat="44.1242" lon="5.265553">
        <ele>834.46</ele>
      </trkpt>
      <trkpt lat="44.124351" lon="5.265879">
        <ele>837.43</ele>
      </trkpt>
      <trkpt lat="44.124463" lon="5.266034">
        <ele>838.97</ele>
      </trkpt>
      <trkpt lat="44.124578" lon="5.266137">
        <ele>840.06</ele>
      </trkpt>
      <trkpt lat="44.124778" lon="5.266389">
        <ele>843.62</ele>
      </trkpt>
      <trkpt lat="44.124845" lon="5.266515">
        <ele>845.7</ele>
      </trkpt>
      <trkpt lat="44.124992" lon="5.266882">
        <ele>850.73</ele>
      </trkpt>
      <trkpt lat="44.125266" lon="5.267664">
        <ele>860.04</ele>
      </trkpt>
      <trkpt lat="44.125342" lon="5.26782">
        <ele>862.18</ele>
      </trkpt>
      <trkpt lat="44.125444" lon="5.267997">
        <ele>864.58</ele>
      </trkpt>
      <trkpt lat="44.125617" lon="5.268272">
        <ele>868.44</ele>
      </trkpt>
      <trkpt lat="44.125674" lon="5.268384">
        <ele>870.15</ele>
      </trkpt>
      <trkpt lat="44.126096" lon="5.269652">
        <ele>882.21</ele>
      </trkpt>
      <trkpt lat="44.126137" lon="5.269842">
        <ele>884.15</ele>
      </trkpt>
      <trkpt lat="44.126168" lon="5.270083">
        <ele>886.88</ele>
      </trkpt>
      <trkpt lat="44.1262" lon="5.270245">
        <ele>888.56</ele>
      </trkpt>
      <trkpt lat="44.126261" lon="5.270434">
        <ele>890.13</ele>
      </trkpt>
      <trkpt lat="44.12648" lon="5.271004">
        <ele>894.05</ele>
      </trkpt>
      <trkpt lat="44.126521" lon="5.271167">
        <ele>895.12</ele>
      </trkpt>
      <trkpt lat="44.126553" lon="5.27143">
        <ele>897.69</ele>
      </trkpt>
      <trkpt lat="44.126617" lon="5.272367">
        <ele>908.07</ele>
      </trkpt>
      <trkpt lat="44.126657" lon="5.273098">
        <ele>915.08</ele>
      </trkpt>
      <trkpt lat="44.126647" lon="5.273276">
        <ele>917.09</ele>
      </trkpt>
      <trkpt lat="44.126619" lon="5.273447">
        <ele>918.76</ele>
      </trkpt>
      <trkpt lat="44.12656" lon="5.273641">
        <ele>919.91</ele>
      </trkpt>
      <trkpt lat="44.126292" lon="5.274296">
        <ele>925.48</ele>
      </trkpt>
      <trkpt lat="44.125792" lon="5.275577">
        <ele>937.98</ele>
      </trkpt>
      <trkpt lat="44.125744" lon="5.275734">
        <ele>939.43</ele>
      </trkpt>
      <trkpt lat="44.125714" lon="5.275905">
        <ele>940.56</ele>
      </trkpt>
      <trkpt lat="44.125709" lon="5.276082">
        <ele>941.51</ele>
      </trkpt>
      <trkpt lat="44.125722" lon="5.27626">
        <ele>942.11</ele>
      </trkpt>
      <trkpt lat="44.126121" lon="5.278079">
        <ele>950.29</ele>
      </trkpt>
      <trkpt lat="44.126168" lon="5.278227">
        <ele>951.28</ele>
      </trkpt>
      <trkpt lat="44.126231" lon="5.278325">
        <ele>951.5</ele>
      </trkpt>
      <trkpt lat="44.126446" lon="5.278546">
        <ele>951.82</ele>
      </trkpt>
      <trkpt lat="44.126494" lon="5.278629">
        <ele>952.55</ele>
      </trkpt>
      <trkpt lat="44.126528" lon="5.278751">
        <ele>954.18</ele>
      </trkpt>
      <trkpt lat="44.126548" lon="5.278887">
        <ele>956.21</ele>
      </trkpt>
      <trkpt lat="44.126569" lon="5.280263">
        <ele>972.1</ele>
      </trkpt>
      <trkpt lat="44.126591" lon="5.280485">
        <ele>974.71</ele>
      </trkpt>
      <trkpt lat="44.126637" lon="5.280674">
        <ele>976.18</ele>
      </trkpt>
      <trkpt lat="44.126841" lon="5.281232">
        <ele>978.22</ele>
      </trkpt>
      <trkpt lat="44.127" lon="5.281693">
        <ele>979.24</ele>
      </trkpt>
      <trkpt lat="44.127037" lon="5.281845">
        <ele>980.01</ele>
      </trkpt>
      <trkpt lat="44.127049" lon="5.281976">
        <ele>981.32</ele>
      </trkpt>
      <trkpt lat="44.127045" lon="5.282144">
        <ele>983.66</ele>
      </trkpt>
      <trkpt lat="44.127007" lon="5.282506">
        <ele>989.47</ele>
      </trkpt>
      <trkpt lat="44.126938" lon="5.282985">
        <ele>993.3</ele>
      </trkpt>
      <trkpt lat="44.126927" lon="5.283151">
        <ele>994.05</ele>
      </trkpt>
      <trkpt lat="44.126928" lon="5.283269">
        <ele>994.39</ele>
      </trkpt>
      <trkpt lat="44.126945" lon="5.283406">
        <ele>994.33</ele>
      </trkpt>
      <trkpt lat="44.126986" lon="5.283512">
        <ele>993.49</ele>
      </trkpt>
      <trkpt lat="44.127054" lon="5.283606">
        <ele>992.39</ele>
      </trkpt>
      <trkpt lat="44.127139" lon="5.283677">
        <ele>991.25</ele>
      </trkpt>
      <trkpt lat="44.127268" lon="5.283749">
        <ele>989.78</ele>
      </trkpt>
      <trkpt lat="44.127395" lon="5.28378">
        <ele>988.58</ele>
      </trkpt>
      <trkpt lat="44.127515" lon="5.283761">
        <ele>987.57</ele>
      </trkpt>
      <trkpt lat="44.127761" lon="5.283657">
        <ele>984.9</ele>
      </trkpt>
      <trkpt lat="44.127853" lon="5.283637">
        <ele>984.03</ele>
      </trkpt>
      <trkpt lat="44.127955" lon="5.283641">
        <ele>983.28</ele>
      </trkpt>
      <trkpt lat="44.128282" lon="5.283724">
        <ele>983.65</ele>
      </trkpt>
      <trkpt lat="44.128417" lon="5.283739">
        <ele>985.68</ele>
      </trkpt>
      <trkpt lat="44.128634" lon="5.283704">
        <ele>988.71</ele>
      </trkpt>
      <trkpt lat="44.128709" lon="5.28372">
        <ele>989.83</ele>
      </trkpt>
      <trkpt lat="44.128744" lon="5.28376">
        <ele>990.34</ele>
      </trkpt>
      <trkpt lat="44.128758" lon="5.283814">
        <ele>990.52</ele>
      </trkpt>
      <trkpt lat="44.128756" lon="5.283863">
        <ele>990.48</ele>
      </trkpt>
      <trkpt lat="44.128732" lon="5.283911">
        <ele>990.2</ele>
      </trkpt>
      <trkpt lat="44.128687" lon="5.283945">
        <ele>989.73</ele>
      </trkpt>
      <trkpt lat="44.128557" lon="5.284012">
        <ele>988.56</ele>
      </trkpt>
      <trkpt lat="44.128498" lon="5.284065">
        <ele>988.22</ele>
      </trkpt>
      <trkpt lat="44.128453" lon="5.284146">
        <ele>988.24</ele>
      </trkpt>
      <trkpt lat="44.128439" lon="5.284253">
        <ele>988.88</ele>
      </trkpt>
      <trkpt lat="44.128451" lon="5.284362">
        <ele>990.01</ele>
      </trkpt>
      <trkpt lat="44.128488" lon="5.284445">
        <ele>990.99</ele>
      </trkpt>
      <trkpt lat="44.128747" lon="5.284887">
        <ele>996</ele>
      </trkpt>
      <trkpt lat="44.128836" lon="5.285073">
        <ele>997.78</ele>
      </trkpt>
      <trkpt lat="44.128862" lon="5.285167">
        <ele>998.71</ele>
      </trkpt>
      <trkpt lat="44.12888" lon="5.285323">
        <ele>1000.19</ele>
      </trkpt>
      <trkpt lat="44.128913" lon="5.285936">
        <ele>1005.8</ele>
      </trkpt>
      <trkpt lat="44.128939" lon="5.286091">
        <ele>1006.81</ele>
      </trkpt>
      <trkpt lat="44.128974" lon="5.286213">
        <ele>1007.72</ele>
      </trkpt>
      <trkpt lat="44.129011" lon="5.2863">
        <ele>1008.45</ele>
      </trkpt>
      <trkpt lat="44.129226" lon="5.286594">
        <ele>1012.03</ele>
      </trkpt>
      <trkpt lat="44.129326" lon="5.286778">
        <ele>1013.83</ele>
      </trkpt>
      <trkpt lat="44.129491" lon="5.28713">
        <ele>1016.66</ele>
      </trkpt>
      <trkpt lat="44.129557" lon="5.287294">
        <ele>1017.83</ele>
      </trkpt>
      <trkpt lat="44.129579" lon="5.287408">
        <ele>1018.45</ele>
      </trkpt>
      <trkpt lat="44.129588" lon="5.287582">
        <ele>1019.2</ele>
      </trkpt>
      <trkpt lat="44.129564" lon="5.287981">
        <ele>1020.44</ele>
      </trkpt>
      <trkpt lat="44.129577" lon="5.288091">
        <ele>1020.95</ele>
      </trkpt>
      <trkpt lat="44.12959" lon="5.288146">
        <ele>1021.27</ele>
      </trkpt>
      <trkpt lat="44.129642" lon="5.288239">
        <ele>1022.14</ele>
      </trkpt>
      <trkpt lat="44.129721" lon="5.288322">
        <ele>1023.3</ele>
      </trkpt>
      <trkpt lat="44.130419" lon="5.288849">
        <ele>1033.72</ele>
      </trkpt>
      <trkpt lat="44.13052" lon="5.288955">
        <ele>1035.49</ele>
      </trkpt>
      <trkpt lat="44.130594" lon="5.289056">
        <ele>1036.93</ele>
      </trkpt>
      <trkpt lat="44.13065" lon="5.289179">
        <ele>1038.33</ele>
      </trkpt>
      <trkpt lat="44.130712" lon="5.289346">
        <ele>1040.11</ele>
      </trkpt>
      <trkpt lat="44.130937" lon="5.290175">
        <ele>1048.04</ele>
      </trkpt>
      <trkpt lat="44.131011" lon="5.290372">
        <ele>1050.18</ele>
      </trkpt>
      <trkpt lat="44.131115" lon="5.290571">
        <ele>1052.67</ele>
      </trkpt>
      <trkpt lat="44.131252" lon="5.290786">
        <ele>1055.64</ele>
      </trkpt>
      <trkpt lat="44.131527" lon="5.291277">
        <ele>1062.37</ele>
      </trkpt>
      <trkpt lat="44.131661" lon="5.291585">
        <ele>1066.13</ele>
      </trkpt>
      <trkpt lat="44.131977" lon="5.292491">
        <ele>1075.31</ele>
      </trkpt>
      <trkpt lat="44.132152" lon="5.292909">
        <ele>1080.46</ele>
      </trkpt>
      <trkpt lat="44.132837" lon="5.294304">
        <ele>1101.29</ele>
      </trkpt>
      <trkpt lat="44.133213" lon="5.294872">
        <ele>1110.25</ele>
      </trkpt>
      <trkpt lat="44.133331" lon="5.295082">
        <ele>1113.16</ele>
      </trkpt>
      <trkpt lat="44.133529" lon="5.295484">
        <ele>1118.21</ele>
      </trkpt>
      <trkpt lat="44.134338" lon="5.297261">
        <ele>1136.46</ele>
      </trkpt>
      <trkpt lat="44.134405" lon="5.297431">
        <ele>1137.91</ele>
      </trkpt>
      <trkpt lat="44.134459" lon="5.297631">
        <ele>1139.83</ele>
      </trkpt>
      <trkpt lat="44.134513" lon="5.2979">
        <ele>1142.81</ele>
      </trkpt>
      <trkpt lat="44.13458" lon="5.29846">
        <ele>1149.39</ele>
      </trkpt>
      <trkpt lat="44.134754" lon="5.300394">
        <ele>1164.83</ele>
      </trkpt>
      <trkpt lat="44.134835" lon="5.300883">
        <ele>1168.07</ele>
      </trkpt>
      <trkpt lat="44.134878" lon="5.301023">
        <ele>1168.89</ele>
      </trkpt>
      <trkpt lat="44.134923" lon="5.301135">
        <ele>1169.25</ele>
      </trkpt>
      <trkpt lat="44.135126" lon="5.301504">
        <ele>1169.89</ele>
      </trkpt>
      <trkpt lat="44.135754" lon="5.302605">
        <ele>1175.61</ele>
      </trkpt>
      <trkpt lat="44.135825" lon="5.302763">
        <ele>1177.57</ele>
      </trkpt>
      <trkpt lat="44.135872" lon="5.3029">
        <ele>1179.23</ele>
      </trkpt>
      <trkpt lat="44.135898" lon="5.303056">
        <ele>1181.17</ele>
      </trkpt>
      <trkpt lat="44.135896" lon="5.303191">
        <ele>1182.97</ele>
      </trkpt>
      <trkpt lat="44.135877" lon="5.303341">
        <ele>1185.08</ele>
      </trkpt>
      <trkpt lat="44.13562" lon="5.30464">
        <ele>1189.34</ele>
      </trkpt>
      <trkpt lat="44.135494" lon="5.30543">
        <ele>1189.24</ele>
      </trkpt>
      <trkpt lat="44.135475" lon="5.305683">
        <ele>1189.25</ele>
      </trkpt>
      <trkpt lat="44.135486" lon="5.305961">
        <ele>1189.79</ele>
      </trkpt>
      <trkpt lat="44.135542" lon="5.306262">
        <ele>1191.43</ele>
      </trkpt>
      <trkpt lat="44.135608" lon="5.306476">
        <ele>1193.01</ele>
      </trkpt>
      <trkpt lat="44.13568" lon="5.306663">
        <ele>1194.66</ele>
      </trkpt>
      <trkpt lat="44.135809" lon="5.306932">
        <ele>1197.65</ele>
      </trkpt>
      <trkpt lat="44.135957" lon="5.307192">
        <ele>1200.69</ele>
      </trkpt>
      <trkpt lat="44.136103" lon="5.307426">
        <ele>1203.37</ele>
      </trkpt>
      <trkpt lat="44.137105" lon="5.308707">
        <ele>1222.94</ele>
      </trkpt>
      <trkpt lat="44.137393" lon="5.309087">
        <ele>1228.78</ele>
      </trkpt>
      <trkpt lat="44.137561" lon="5.309375">
        <ele>1230.98</ele>
      </trkpt>
      <trkpt lat="44.137673" lon="5.30963">
        <ele>1232.7</ele>
      </trkpt>
      <trkpt lat="44.13808" lon="5.310755">
        <ele>1243.01</ele>
      </trkpt>
      <trkpt lat="44.138139" lon="5.310944">
        <ele>1245.43</ele>
      </trkpt>
      <trkpt lat="44.138161" lon="5.311126">
        <ele>1247.46</ele>
      </trkpt>
      <trkpt lat="44.138154" lon="5.31133">
        <ele>1249.59</ele>
      </trkpt>
      <trkpt lat="44.138124" lon="5.311568">
        <ele>1251.88</ele>
      </trkpt>
      <trkpt lat="44.138129" lon="5.311689">
        <ele>1253.18</ele>
      </trkpt>
      <trkpt lat="44.138155" lon="5.311848">
        <ele>1254.95</ele>
      </trkpt>
      <trkpt lat="44.138357" lon="5.312586">
        <ele>1260.66</ele>
      </trkpt>
      <trkpt lat="44.138392" lon="5.31279">
        <ele>1261.98</ele>
      </trkpt>
      <trkpt lat="44.13846" lon="5.313427">
        <ele>1266.75</ele>
      </trkpt>
      <trkpt lat="44.138497" lon="5.313634">
        <ele>1268.5</ele>
      </trkpt>
      <trkpt lat="44.138544" lon="5.313806">
        <ele>1269.97</ele>
      </trkpt>
      <trkpt lat="44.138608" lon="5.313992">
        <ele>1271.68</ele>
      </trkpt>
      <trkpt lat="44.138727" lon="5.314255">
        <ele>1274.31</ele>
      </trkpt>
      <trkpt lat="44.13901" lon="5.314824">
        <ele>1281.17</ele>
      </trkpt>
      <trkpt lat="44.139642" lon="5.31581">
        <ele>1283.76</ele>
      </trkpt>
      <trkpt lat="44.139961" lon="5.31626">
        <ele>1286.84</ele>
      </trkpt>
      <trkpt lat="44.140514" lon="5.316983">
        <ele>1291.76</ele>
      </trkpt>
      <trkpt lat="44.140685" lon="5.317249">
        <ele>1295.94</ele>
      </trkpt>
      <trkpt lat="44.140846" lon="5.31753">
        <ele>1299.53</ele>
      </trkpt>
      <trkpt lat="44.141083" lon="5.317863">
        <ele>1301.7</ele>
      </trkpt>
      <trkpt lat="44.141247" lon="5.318049">
        <ele>1303.51</ele>
      </trkpt>
      <trkpt lat="44.141494" lon="5.318293">
        <ele>1306.84</ele>
      </trkpt>
      <trkpt lat="44.141645" lon="5.318419">
        <ele>1308.29</ele>
      </trkpt>
      <trkpt lat="44.141719" lon="5.318462">
        <ele>1308.72</ele>
      </trkpt>
      <trkpt lat="44.141801" lon="5.318477">
        <ele>1308.91</ele>
      </trkpt>
      <trkpt lat="44.141881" lon="5.318472">
        <ele>1308.89</ele>
      </trkpt>
      <trkpt lat="44.142154" lon="5.318399">
        <ele>1308.16</ele>
      </trkpt>
      <trkpt lat="44.142248" lon="5.318395">
        <ele>1308.11</ele>
      </trkpt>
      <trkpt lat="44.142325" lon="5.318409">
        <ele>1308.3</ele>
      </trkpt>
      <trkpt lat="44.142594" lon="5.318551">
        <ele>1312.28</ele>
      </trkpt>
      <trkpt lat="44.142696" lon="5.318572">
        <ele>1313.43</ele>
      </trkpt>
      <trkpt lat="44.142761" lon="5.318561">
        <ele>1313.88</ele>
      </trkpt>
      <trkpt lat="44.142828" lon="5.31853">
        <ele>1314.11</ele>
      </trkpt>
      <trkpt lat="44.142954" lon="5.318443">
        <ele>1314.33</ele>
      </trkpt>
      <trkpt lat="44.143256" lon="5.318181">
        <ele>1317.04</ele>
      </trkpt>
      <trkpt lat="44.143513" lon="5.317997">
        <ele>1321.21</ele>
      </trkpt>
      <trkpt lat="44.143622" lon="5.317894">
        <ele>1323.03</ele>
      </trkpt>
      <trkpt lat="44.143789" lon="5.317701">
        <ele>1325.93</ele>
      </trkpt>
      <trkpt lat="44.143909" lon="5.317589">
        <ele>1328.04</ele>
      </trkpt>
      <trkpt lat="44.144" lon="5.317522">
        <ele>1329.97</ele>
      </trkpt>
      <trkpt lat="44.144096" lon="5.317476">
        <ele>1331.94</ele>
      </trkpt>
      <trkpt lat="44.144204" lon="5.317442">
        <ele>1333.86</ele>
      </trkpt>
      <trkpt lat="44.144569" lon="5.317406">
        <ele>1339.38</ele>
      </trkpt>
      <trkpt lat="44.144716" lon="5.317413">
        <ele>1341.36</ele>
      </trkpt>
      <trkpt lat="44.145205" lon="5.317537">
        <ele>1345.89</ele>
      </trkpt>
      <trkpt lat="44.145564" lon="5.317608">
        <ele>1350.36</ele>
      </trkpt>
      <trkpt lat="44.145785" lon="5.3177">
        <ele>1353.89</ele>
      </trkpt>
      <trkpt lat="44.145859" lon="5.317694">
        <ele>1354.41</ele>
      </trkpt>
      <trkpt lat="44.145893" lon="5.317669">
        <ele>1354.33</ele>
      </trkpt>
      <trkpt lat="44.145911" lon="5.317614">
        <ele>1353.71</ele>
      </trkpt>
      <trkpt lat="44.145908" lon="5.317544">
        <ele>1352.88</ele>
      </trkpt>
      <trkpt lat="44.14588" lon="5.317474">
        <ele>1353.1</ele>
      </trkpt>
      <trkpt lat="44.145646" lon="5.317054">
        <ele>1353.61</ele>
      </trkpt>
      <trkpt lat="44.14547" lon="5.316704">
        <ele>1354.52</ele>
      </trkpt>
      <trkpt lat="44.145445" lon="5.316571">
        <ele>1355.28</ele>
      </trkpt>
      <trkpt lat="44.145453" lon="5.316474">
        <ele>1356.01</ele>
      </trkpt>
      <trkpt lat="44.14548" lon="5.316393">
        <ele>1356.73</ele>
      </trkpt>
      <trkpt lat="44.14559" lon="5.316189">
        <ele>1358.68</ele>
      </trkpt>
      <trkpt lat="44.145761" lon="5.3159">
        <ele>1361.59</ele>
      </trkpt>
      <trkpt lat="44.146036" lon="5.31538">
        <ele>1361.49</ele>
      </trkpt>
      <trkpt lat="44.146121" lon="5.31529">
        <ele>1361.5</ele>
      </trkpt>
      <trkpt lat="44.146172" lon="5.315261">
        <ele>1361.64</ele>
      </trkpt>
      <trkpt lat="44.146278" lon="5.315244">
        <ele>1362.15</ele>
      </trkpt>
      <trkpt lat="44.146362" lon="5.315245">
        <ele>1362.66</ele>
      </trkpt>
      <trkpt lat="44.146887" lon="5.315389">
        <ele>1367.18</ele>
      </trkpt>
      <trkpt lat="44.147022" lon="5.315458">
        <ele>1368.94</ele>
      </trkpt>
      <trkpt lat="44.14714" lon="5.315554">
        <ele>1371.09</ele>
      </trkpt>
      <trkpt lat="44.147219" lon="5.315646">
        <ele>1373.05</ele>
      </trkpt>
      <trkpt lat="44.147339" lon="5.315824">
        <ele>1376.84</ele>
      </trkpt>
      <trkpt lat="44.147408" lon="5.3159">
        <ele>1378.15</ele>
      </trkpt>
      <trkpt lat="44.147496" lon="5.315976">
        <ele>1378.6</ele>
      </trkpt>
      <trkpt lat="44.147639" lon="5.316042">
        <ele>1379.43</ele>
      </trkpt>
      <trkpt lat="44.14804" lon="5.316171">
        <ele>1382.5</ele>
      </trkpt>
      <trkpt lat="44.148327" lon="5.316333">
        <ele>1385.75</ele>
      </trkpt>
      <trkpt lat="44.149102" lon="5.316819">
        <ele>1397.85</ele>
      </trkpt>
      <trkpt lat="44.149922" lon="5.317394">
        <ele>1407</ele>
      </trkpt>
      <trkpt lat="44.150145" lon="5.317504">
        <ele>1408.45</ele>
      </trkpt>
      <trkpt lat="44.150501" lon="5.317632">
        <ele>1410.12</ele>
      </trkpt>
      <trkpt lat="44.150726" lon="5.317747">
        <ele>1412.54</ele>
      </trkpt>
      <trkpt lat="44.150928" lon="5.317902">
        <ele>1415.57</ele>
      </trkpt>
      <trkpt lat="44.151116" lon="5.318063">
        <ele>1418.59</ele>
      </trkpt>
      <trkpt lat="44.151527" lon="5.318488">
        <ele>1425.94</ele>
      </trkpt>
      <trkpt lat="44.151891" lon="5.31882">
        <ele>1430.12</ele>
      </trkpt>
      <trkpt lat="44.15197" lon="5.318863">
        <ele>1430.41</ele>
      </trkpt>
      <trkpt lat="44.152035" lon="5.318861">
        <ele>1429.98</ele>
      </trkpt>
      <trkpt lat="44.152074" lon="5.31884">
        <ele>1429.35</ele>
      </trkpt>
      <trkpt lat="44.152129" lon="5.318791">
        <ele>1428.16</ele>
      </trkpt>
      <trkpt lat="44.15217" lon="5.318744">
        <ele>1427.11</ele>
      </trkpt>
      <trkpt lat="44.152202" lon="5.318687">
        <ele>1425.93</ele>
      </trkpt>
      <trkpt lat="44.152226" lon="5.318554">
        <ele>1423.52</ele>
      </trkpt>
      <trkpt lat="44.152224" lon="5.318399">
        <ele>1420.86</ele>
      </trkpt>
      <trkpt lat="44.151911" lon="5.31734">
        <ele>1413.07</ele>
      </trkpt>
      <trkpt lat="44.15183" lon="5.317105">
        <ele>1412.8</ele>
      </trkpt>
      <trkpt lat="44.15166" lon="5.316697">
        <ele>1409.74</ele>
      </trkpt>
      <trkpt lat="44.151566" lon="5.316431">
        <ele>1411.46</ele>
      </trkpt>
      <trkpt lat="44.151495" lon="5.316191">
        <ele>1413.84</ele>
      </trkpt>
      <trkpt lat="44.151218" lon="5.315095">
        <ele>1425.16</ele>
      </trkpt>
      <trkpt lat="44.151152" lon="5.314913">
        <ele>1426.53</ele>
      </trkpt>
      <trkpt lat="44.150955" lon="5.31455">
        <ele>1428.25</ele>
      </trkpt>
      <trkpt lat="44.150907" lon="5.314402">
        <ele>1429.94</ele>
      </trkpt>
      <trkpt lat="44.150896" lon="5.314264">
        <ele>1432.31</ele>
      </trkpt>
      <trkpt lat="44.150921" lon="5.314135">
        <ele>1434.31</ele>
      </trkpt>
      <trkpt lat="44.150978" lon="5.314005">
        <ele>1436.36</ele>
      </trkpt>
      <trkpt lat="44.151084" lon="5.31386">
        <ele>1439.23</ele>
      </trkpt>
      <trkpt lat="44.151258" lon="5.313684">
        <ele>1443.06</ele>
      </trkpt>
      <trkpt lat="44.151448" lon="5.313527">
        <ele>1446.54</ele>
      </trkpt>
      <trkpt lat="44.151539" lon="5.313485">
        <ele>1447.9</ele>
      </trkpt>
      <trkpt lat="44.15163" lon="5.313478">
        <ele>1448.84</ele>
      </trkpt>
      <trkpt lat="44.151742" lon="5.313487">
        <ele>1449.96</ele>
      </trkpt>
      <trkpt lat="44.152167" lon="5.313577">
        <ele>1454.41</ele>
      </trkpt>
      <trkpt lat="44.152277" lon="5.31361">
        <ele>1455.65</ele>
      </trkpt>
      <trkpt lat="44.152398" lon="5.313665">
        <ele>1456.77</ele>
      </trkpt>
      <trkpt lat="44.152477" lon="5.313716">
        <ele>1457.16</ele>
      </trkpt>
      <trkpt lat="44.152583" lon="5.313805">
        <ele>1457.95</ele>
      </trkpt>
      <trkpt lat="44.152773" lon="5.314022">
        <ele>1460.45</ele>
      </trkpt>
      <trkpt lat="44.152974" lon="5.314288">
        <ele>1463.8</ele>
      </trkpt>
      <trkpt lat="44.153083" lon="5.314383">
        <ele>1464.82</ele>
      </trkpt>
      <trkpt lat="44.153214" lon="5.314467">
        <ele>1466.08</ele>
      </trkpt>
      <trkpt lat="44.153677" lon="5.314679">
        <ele>1469.21</ele>
      </trkpt>
      <trkpt lat="44.153792" lon="5.314746">
        <ele>1470.55</ele>
      </trkpt>
      <trkpt lat="44.154666" lon="5.31537">
        <ele>1482.56</ele>
      </trkpt>
      <trkpt lat="44.154772" lon="5.315431">
        <ele>1484.19</ele>
      </trkpt>
      <trkpt lat="44.154844" lon="5.315446">
        <ele>1485.05</ele>
      </trkpt>
      <trkpt lat="44.154898" lon="5.315438">
        <ele>1485.51</ele>
      </trkpt>
      <trkpt lat="44.154936" lon="5.31541">
        <ele>1485.56</ele>
      </trkpt>
      <trkpt lat="44.154964" lon="5.315367">
        <ele>1485.31</ele>
      </trkpt>
      <trkpt lat="44.154981" lon="5.31532">
        <ele>1484.9</ele>
      </trkpt>
      <trkpt lat="44.154975" lon="5.31524">
        <ele>1483.79</ele>
      </trkpt>
      <trkpt lat="44.154941" lon="5.315148">
        <ele>1482.22</ele>
      </trkpt>
      <trkpt lat="44.154835" lon="5.314912">
        <ele>1478.85</ele>
      </trkpt>
      <trkpt lat="44.154801" lon="5.314769">
        <ele>1477.59</ele>
      </trkpt>
      <trkpt lat="44.154781" lon="5.314601">
        <ele>1476.18</ele>
      </trkpt>
      <trkpt lat="44.154776" lon="5.314371">
        <ele>1474.36</ele>
      </trkpt>
      <trkpt lat="44.154793" lon="5.313885">
        <ele>1474.15</ele>
      </trkpt>
      <trkpt lat="44.154859" lon="5.312948">
        <ele>1478.05</ele>
      </trkpt>
      <trkpt lat="44.154883" lon="5.312713">
        <ele>1479.18</ele>
      </trkpt>
      <trkpt lat="44.15491" lon="5.31258">
        <ele>1480.09</ele>
      </trkpt>
      <trkpt lat="44.15494" lon="5.312481">
        <ele>1480.76</ele>
      </trkpt>
      <trkpt lat="44.154997" lon="5.312367">
        <ele>1481.77</ele>
      </trkpt>
      <trkpt lat="44.155057" lon="5.31229">
        <ele>1482.76</ele>
      </trkpt>
      <trkpt lat="44.155115" lon="5.312237">
        <ele>1483.67</ele>
      </trkpt>
      <trkpt lat="44.155163" lon="5.312209">
        <ele>1484.43</ele>
      </trkpt>
      <trkpt lat="44.15524" lon="5.312188">
        <ele>1485.69</ele>
      </trkpt>
      <trkpt lat="44.155314" lon="5.312183">
        <ele>1486.95</ele>
      </trkpt>
      <trkpt lat="44.15545" lon="5.312211">
        <ele>1489.58</ele>
      </trkpt>
      <trkpt lat="44.155549" lon="5.312273">
        <ele>1491.95</ele>
      </trkpt>
      <trkpt lat="44.156057" lon="5.312647">
        <ele>1500.8</ele>
      </trkpt>
      <trkpt lat="44.156233" lon="5.312751">
        <ele>1503.02</ele>
      </trkpt>
      <trkpt lat="44.156925" lon="5.31305">
        <ele>1510.42</ele>
      </trkpt>
      <trkpt lat="44.157115" lon="5.313151">
        <ele>1512.84</ele>
      </trkpt>
      <trkpt lat="44.157479" lon="5.313435">
        <ele>1519.58</ele>
      </trkpt>
      <trkpt lat="44.15755" lon="5.313458">
        <ele>1519.89</ele>
      </trkpt>
      <trkpt lat="44.157626" lon="5.313455">
        <ele>1519.88</ele>
      </trkpt>
      <trkpt lat="44.157693" lon="5.313427">
        <ele>1519.54</ele>
      </trkpt>
      <trkpt lat="44.157749" lon="5.313367">
        <ele>1518.68</ele>
      </trkpt>
      <trkpt lat="44.157799" lon="5.313266">
        <ele>1517.02</ele>
      </trkpt>
      <trkpt lat="44.157812" lon="5.313192">
        <ele>1515.84</ele>
      </trkpt>
      <trkpt lat="44.157817" lon="5.313071">
        <ele>1513.91</ele>
      </trkpt>
      <trkpt lat="44.157788" lon="5.312265">
        <ele>1505.74</ele>
      </trkpt>
      <trkpt lat="44.157773" lon="5.312159">
        <ele>1505.63</ele>
      </trkpt>
      <trkpt lat="44.157573" lon="5.311648">
        <ele>1500.82</ele>
      </trkpt>
      <trkpt lat="44.157528" lon="5.311507">
        <ele>1501.11</ele>
      </trkpt>
      <trkpt lat="44.157474" lon="5.311294">
        <ele>1501.95</ele>
      </trkpt>
      <trkpt lat="44.157429" lon="5.311028">
        <ele>1503.68</ele>
      </trkpt>
      <trkpt lat="44.157401" lon="5.310758">
        <ele>1505.8</ele>
      </trkpt>
      <trkpt lat="44.157409" lon="5.310482">
        <ele>1508.99</ele>
      </trkpt>
      <trkpt lat="44.157435" lon="5.310223">
        <ele>1512.55</ele>
      </trkpt>
      <trkpt lat="44.157505" lon="5.309834">
        <ele>1516.88</ele>
      </trkpt>
      <trkpt lat="44.157559" lon="5.309597">
        <ele>1518.79</ele>
      </trkpt>
      <trkpt lat="44.157633" lon="5.309361">
        <ele>1521.11</ele>
      </trkpt>
      <trkpt lat="44.15772" lon="5.309123">
        <ele>1523.18</ele>
      </trkpt>
      <trkpt lat="44.157835" lon="5.308878">
        <ele>1525.27</ele>
      </trkpt>
      <trkpt lat="44.157944" lon="5.308721">
        <ele>1527.39</ele>
      </trkpt>
      <trkpt lat="44.158135" lon="5.308513">
        <ele>1531.21</ele>
      </trkpt>
      <trkpt lat="44.158309" lon="5.308377">
        <ele>1534.12</ele>
      </trkpt>
      <trkpt lat="44.158487" lon="5.308274">
        <ele>1535.92</ele>
      </trkpt>
      <trkpt lat="44.15868" lon="5.30819">
        <ele>1538.13</ele>
      </trkpt>
      <trkpt lat="44.15886" lon="5.308133">
        <ele>1540.45</ele>
      </trkpt>
      <trkpt lat="44.159037" lon="5.308105">
        <ele>1543.1</ele>
      </trkpt>
      <trkpt lat="44.159223" lon="5.308104">
        <ele>1545.53</ele>
      </trkpt>
      <trkpt lat="44.159938" lon="5.308208">
        <ele>1556.98</ele>
      </trkpt>
      <trkpt lat="44.16008" lon="5.308217">
        <ele>1559.26</ele>
      </trkpt>
      <trkpt lat="44.160151" lon="5.308203">
        <ele>1560.14</ele>
      </trkpt>
      <trkpt lat="44.160203" lon="5.308176">
        <ele>1560.6</ele>
      </trkpt>
      <trkpt lat="44.160241" lon="5.308139">
        <ele>1560.76</ele>
      </trkpt>
      <trkpt lat="44.160271" lon="5.308071">
        <ele>1560.51</ele>
      </trkpt>
      <trkpt lat="44.160278" lon="5.307979">
        <ele>1559.64</ele>
      </trkpt>
      <trkpt lat="44.160264" lon="5.307861">
        <ele>1558.08</ele>
      </trkpt>
      <trkpt lat="44.160233" lon="5.307762">
        <ele>1556.29</ele>
      </trkpt>
      <trkpt lat="44.159999" lon="5.307264">
        <ele>1549.62</ele>
      </trkpt>
      <trkpt lat="44.159923" lon="5.307053">
        <ele>1548.83</ele>
      </trkpt>
      <trkpt lat="44.159843" lon="5.306744">
        <ele>1548.43</ele>
      </trkpt>
      <trkpt lat="44.159653" lon="5.305804">
        <ele>1556.3</ele>
      </trkpt>
      <trkpt lat="44.159625" lon="5.305619">
        <ele>1557.26</ele>
      </trkpt>
      <trkpt lat="44.159613" lon="5.30544">
        <ele>1558.66</ele>
      </trkpt>
      <trkpt lat="44.159621" lon="5.305254">
        <ele>1560.7</ele>
      </trkpt>
      <trkpt lat="44.159644" lon="5.305042">
        <ele>1563.32</ele>
      </trkpt>
      <trkpt lat="44.159705" lon="5.304728">
        <ele>1565.77</ele>
      </trkpt>
      <trkpt lat="44.160021" lon="5.303258">
        <ele>1574.62</ele>
      </trkpt>
      <trkpt lat="44.160063" lon="5.303127">
        <ele>1575.26</ele>
      </trkpt>
      <trkpt lat="44.160381" lon="5.302274">
        <ele>1580.89</ele>
      </trkpt>
      <trkpt lat="44.160584" lon="5.301757">
        <ele>1584.39</ele>
      </trkpt>
      <trkpt lat="44.160724" lon="5.301494">
        <ele>1586.58</ele>
      </trkpt>
      <trkpt lat="44.160894" lon="5.301276">
        <ele>1589.09</ele>
      </trkpt>
      <trkpt lat="44.161071" lon="5.301096">
        <ele>1591.83</ele>
      </trkpt>
      <trkpt lat="44.161412" lon="5.300834">
        <ele>1597.27</ele>
      </trkpt>
      <trkpt lat="44.161525" lon="5.300771">
        <ele>1599.01</ele>
      </trkpt>
      <trkpt lat="44.161635" lon="5.300728">
        <ele>1600.16</ele>
      </trkpt>
      <trkpt lat="44.16174" lon="5.300725">
        <ele>1601.55</ele>
      </trkpt>
      <trkpt lat="44.161819" lon="5.300751">
        <ele>1602.86</ele>
      </trkpt>
      <trkpt lat="44.161894" lon="5.300814">
        <ele>1604.55</ele>
      </trkpt>
      <trkpt lat="44.161973" lon="5.300913">
        <ele>1606.66</ele>
      </trkpt>
      <trkpt lat="44.162672" lon="5.302203">
        <ele>1624.02</ele>
      </trkpt>
      <trkpt lat="44.162759" lon="5.302334">
        <ele>1625.94</ele>
      </trkpt>
      <trkpt lat="44.162824" lon="5.302413">
        <ele>1627.34</ele>
      </trkpt>
      <trkpt lat="44.162905" lon="5.302495">
        <ele>1629.05</ele>
      </trkpt>
      <trkpt lat="44.162976" lon="5.302528">
        <ele>1630.05</ele>
      </trkpt>
      <trkpt lat="44.163044" lon="5.302529">
        <ele>1630.53</ele>
      </trkpt>
      <trkpt lat="44.163152" lon="5.302498">
        <ele>1630.66</ele>
      </trkpt>
      <trkpt lat="44.163244" lon="5.302444">
        <ele>1629.93</ele>
      </trkpt>
      <trkpt lat="44.163689" lon="5.302129">
        <ele>1623.99</ele>
      </trkpt>
      <trkpt lat="44.163752" lon="5.302071">
        <ele>1622.8</ele>
      </trkpt>
      <trkpt lat="44.163843" lon="5.301968">
        <ele>1620.59</ele>
      </trkpt>
      <trkpt lat="44.163897" lon="5.301889">
        <ele>1618.85</ele>
      </trkpt>
      <trkpt lat="44.163951" lon="5.301783">
        <ele>1616.5</ele>
      </trkpt>
      <trkpt lat="44.163998" lon="5.30167">
        <ele>1614.2</ele>
      </trkpt>
      <trkpt lat="44.164364" lon="5.30056">
        <ele>1612.3</ele>
      </trkpt>
      <trkpt lat="44.164498" lon="5.300187">
        <ele>1614.3</ele>
      </trkpt>
      <trkpt lat="44.164616" lon="5.299893">
        <ele>1616.6</ele>
      </trkpt>
      <trkpt lat="44.164986" lon="5.299093">
        <ele>1624.7</ele>
      </trkpt>
      <trkpt lat="44.165046" lon="5.298942">
        <ele>1626.2</ele>
      </trkpt>
      <trkpt lat="44.165098" lon="5.298788">
        <ele>1627.37</ele>
      </trkpt>
      <trkpt lat="44.165138" lon="5.298628">
        <ele>1627.92</ele>
      </trkpt>
      <trkpt lat="44.165253" lon="5.298033">
        <ele>1632.03</ele>
      </trkpt>
      <trkpt lat="44.165338" lon="5.297661">
        <ele>1636.3</ele>
      </trkpt>
      <trkpt lat="44.165444" lon="5.297297">
        <ele>1639.1</ele>
      </trkpt>
      <trkpt lat="44.165511" lon="5.297166">
        <ele>1640.81</ele>
      </trkpt>
      <trkpt lat="44.165604" lon="5.297034">
        <ele>1643.33</ele>
      </trkpt>
      <trkpt lat="44.165692" lon="5.29693">
        <ele>1645.71</ele>
      </trkpt>
      <trkpt lat="44.165765" lon="5.296868">
        <ele>1647.2</ele>
      </trkpt>
      <trkpt lat="44.165868" lon="5.296793">
        <ele>1649.2</ele>
      </trkpt>
      <trkpt lat="44.166357" lon="5.296496">
        <ele>1654.51</ele>
      </trkpt>
      <trkpt lat="44.166867" lon="5.296165">
        <ele>1660.64</ele>
      </trkpt>
      <trkpt lat="44.166977" lon="5.29608">
        <ele>1662.03</ele>
      </trkpt>
      <trkpt lat="44.16734" lon="5.295727">
        <ele>1667.41</ele>
      </trkpt>
      <trkpt lat="44.16747" lon="5.29558">
        <ele>1670.45</ele>
      </trkpt>
      <trkpt lat="44.167569" lon="5.29542">
        <ele>1672.31</ele>
      </trkpt>
      <trkpt lat="44.167628" lon="5.295284">
        <ele>1672.97</ele>
      </trkpt>
      <trkpt lat="44.167664" lon="5.295168">
        <ele>1672.99</ele>
      </trkpt>
      <trkpt lat="44.167675" lon="5.295082">
        <ele>1672.43</ele>
      </trkpt>
      <trkpt lat="44.167676" lon="5.294983">
        <ele>1673.28</ele>
      </trkpt>
      <trkpt lat="44.167664" lon="5.294886">
        <ele>1674.55</ele>
      </trkpt>
      <trkpt lat="44.167638" lon="5.294782">
        <ele>1675.44</ele>
      </trkpt>
      <trkpt lat="44.167592" lon="5.294647">
        <ele>1676.18</ele>
      </trkpt>
      <trkpt lat="44.167192" lon="5.293771">
        <ele>1678.44</ele>
      </trkpt>
      <trkpt lat="44.167132" lon="5.293606">
        <ele>1679.59</ele>
      </trkpt>
      <trkpt lat="44.167099" lon="5.293477">
        <ele>1681</ele>
      </trkpt>
      <trkpt lat="44.167078" lon="5.293358">
        <ele>1682.25</ele>
      </trkpt>
      <trkpt lat="44.167055" lon="5.293066">
        <ele>1682.43</ele>
      </trkpt>
      <trkpt lat="44.167061" lon="5.292907">
        <ele>1683.15</ele>
      </trkpt>
      <trkpt lat="44.167079" lon="5.292774">
        <ele>1684.13</ele>
      </trkpt>
      <trkpt lat="44.167155" lon="5.29251">
        <ele>1686.89</ele>
      </trkpt>
      <trkpt lat="44.167219" lon="5.292376">
        <ele>1687.44</ele>
      </trkpt>
      <trkpt lat="44.16729" lon="5.292251">
        <ele>1688.21</ele>
      </trkpt>
      <trkpt lat="44.167375" lon="5.292122">
        <ele>1689.28</ele>
      </trkpt>
      <trkpt lat="44.167457" lon="5.292027">
        <ele>1690.43</ele>
      </trkpt>
      <trkpt lat="44.16755" lon="5.291944">
        <ele>1691.97</ele>
      </trkpt>
      <trkpt lat="44.167626" lon="5.291891">
        <ele>1693.38</ele>
      </trkpt>
      <trkpt lat="44.167701" lon="5.291849">
        <ele>1694.82</ele>
      </trkpt>
      <trkpt lat="44.169192" lon="5.291242">
        <ele>1727.27</ele>
      </trkpt>
      <trkpt lat="44.169306" lon="5.291188">
        <ele>1729.4</ele>
      </trkpt>
      <trkpt lat="44.169401" lon="5.291109">
        <ele>1730.79</ele>
      </trkpt>
      <trkpt lat="44.169441" lon="5.291031">
        <ele>1730.93</ele>
      </trkpt>
      <trkpt lat="44.169455" lon="5.290963">
        <ele>1730.55</ele>
      </trkpt>
      <trkpt lat="44.169448" lon="5.290883">
        <ele>1729.59</ele>
      </trkpt>
      <trkpt lat="44.169427" lon="5.290801">
        <ele>1730.4</ele>
      </trkpt>
      <trkpt lat="44.16939" lon="5.29072">
        <ele>1730.89</ele>
      </trkpt>
      <trkpt lat="44.169339" lon="5.290648">
        <ele>1730.92</ele>
      </trkpt>
      <trkpt lat="44.168887" lon="5.290154">
        <ele>1728.69</ele>
      </trkpt>
      <trkpt lat="44.168751" lon="5.289962">
        <ele>1727.73</ele>
      </trkpt>
      <trkpt lat="44.168668" lon="5.289753">
        <ele>1727.2</ele>
      </trkpt>
      <trkpt lat="44.168618" lon="5.289531">
        <ele>1727.42</ele>
      </trkpt>
      <trkpt lat="44.168602" lon="5.289373">
        <ele>1728.08</ele>
      </trkpt>
      <trkpt lat="44.168598" lon="5.289178">
        <ele>1729.12</ele>
      </trkpt>
      <trkpt lat="44.168606" lon="5.289011">
        <ele>1729.56</ele>
      </trkpt>
      <trkpt lat="44.168622" lon="5.288853">
        <ele>1730.27</ele>
      </trkpt>
      <trkpt lat="44.168679" lon="5.288413">
        <ele>1732.65</ele>
      </trkpt>
      <trkpt lat="44.168753" lon="5.288013">
        <ele>1734.66</ele>
      </trkpt>
      <trkpt lat="44.168871" lon="5.287594">
        <ele>1737.96</ele>
      </trkpt>
      <trkpt lat="44.16902" lon="5.287157">
        <ele>1739.92</ele>
      </trkpt>
      <trkpt lat="44.169132" lon="5.286877">
        <ele>1741.62</ele>
      </trkpt>
      <trkpt lat="44.169255" lon="5.286623">
        <ele>1744.06</ele>
      </trkpt>
      <trkpt lat="44.169359" lon="5.286443">
        <ele>1746.37</ele>
      </trkpt>
      <trkpt lat="44.169448" lon="5.286308">
        <ele>1748.42</ele>
      </trkpt>
      <trkpt lat="44.169641" lon="5.286053">
        <ele>1753.03</ele>
      </trkpt>
      <trkpt lat="44.169768" lon="5.285908">
        <ele>1756.17</ele>
      </trkpt>
      <trkpt lat="44.169911" lon="5.28577">
        <ele>1758.68</ele>
      </trkpt>
      <trkpt lat="44.170486" lon="5.285263">
        <ele>1767.34</ele>
      </trkpt>
      <trkpt lat="44.170609" lon="5.285136">
        <ele>1768.9</ele>
      </trkpt>
      <trkpt lat="44.170701" lon="5.285017">
        <ele>1769.74</ele>
      </trkpt>
      <trkpt lat="44.170921" lon="5.284689">
        <ele>1771.15</ele>
      </trkpt>
      <trkpt lat="44.171007" lon="5.284582">
        <ele>1771.83</ele>
      </trkpt>
      <trkpt lat="44.171118" lon="5.284486">
        <ele>1773.22</ele>
      </trkpt>
      <trkpt lat="44.171246" lon="5.284398">
        <ele>1775.11</ele>
      </trkpt>
      <trkpt lat="44.171376" lon="5.284335">
        <ele>1777.37</ele>
      </trkpt>
      <trkpt lat="44.171534" lon="5.284282">
        <ele>1780.4</ele>
      </trkpt>
      <trkpt lat="44.171732" lon="5.28424">
        <ele>1783.18</ele>
      </trkpt>
      <trkpt lat="44.172709" lon="5.284094">
        <ele>1795.94</ele>
      </trkpt>
      <trkpt lat="44.173689" lon="5.283928">
        <ele>1810.07</ele>
      </trkpt>
      <trkpt lat="44.174006" lon="5.283837">
        <ele>1815.15</ele>
      </trkpt>
      <trkpt lat="44.174082" lon="5.283804">
        <ele>1815.5</ele>
      </trkpt>
      <trkpt lat="44.174164" lon="5.283746">
        <ele>1815.46</ele>
      </trkpt>
      <trkpt lat="44.174196" lon="5.283696">
        <ele>1815.25</ele>
      </trkpt>
      <trkpt lat="44.174229" lon="5.283596">
        <ele>1814.75</ele>
      </trkpt>
      <trkpt lat="44.174243" lon="5.283501">
        <ele>1814.15</ele>
      </trkpt>
      <trkpt lat="44.174244" lon="5.283351">
        <ele>1813.35</ele>
      </trkpt>
      <trkpt lat="44.174181" lon="5.282891">
        <ele>1814.36</ele>
      </trkpt>
      <trkpt lat="44.174017" lon="5.282016">
        <ele>1821.3</ele>
      </trkpt>
      <trkpt lat="44.173794" lon="5.280871">
        <ele>1837.58</ele>
      </trkpt>
      <trkpt lat="44.173768" lon="5.280764">
        <ele>1838.85</ele>
      </trkpt>
      <trkpt lat="44.173738" lon="5.280664">
        <ele>1839.91</ele>
      </trkpt>
      <trkpt lat="44.173663" lon="5.28049">
        <ele>1841.04</ele>
      </trkpt>
      <trkpt lat="44.173111" lon="5.279384">
        <ele>1844</ele>
      </trkpt>
      <trkpt lat="44.173049" lon="5.279247">
        <ele>1844</ele>
      </trkpt>
      <trkpt lat="44.172987" lon="5.279053">
        <ele>1843.53</ele>
      </trkpt>
      <trkpt lat="44.172964" lon="5.278904">
        <ele>1843.88</ele>
      </trkpt>
      <trkpt lat="44.17296" lon="5.278775">
        <ele>1844.77</ele>
      </trkpt>
      <trkpt lat="44.172968" lon="5.278412">
        <ele>1848</ele>
      </trkpt>
      <trkpt lat="44.172981" lon="5.278284">
        <ele>1848.46</ele>
      </trkpt>
      <trkpt lat="44.173008" lon="5.278107">
        <ele>1848.98</ele>
      </trkpt>
      <trkpt lat="44.173079" lon="5.277872">
        <ele>1850.87</ele>
      </trkpt>
      <trkpt lat="44.173254" lon="5.277448">
        <ele>1855.51</ele>
      </trkpt>
      <trkpt lat="44.1733" lon="5.277316">
        <ele>1856.05</ele>
      </trkpt>
      <trkpt lat="44.173353" lon="5.277093">
        <ele>1855.58</ele>
      </trkpt>
      <trkpt lat="44.173387" lon="5.277038">
        <ele>1856.07</ele>
      </trkpt>
      <trkpt lat="44.173428" lon="5.277022">
        <ele>1857.25</ele>
      </trkpt>
      <trkpt lat="44.173455" lon="5.277026">
        <ele>1858.2</ele>
      </trkpt>
      <trkpt lat="44.173476" lon="5.277046">
        <ele>1859.16</ele>
      </trkpt>
      <trkpt lat="44.173491" lon="5.277076">
        <ele>1860.06</ele>
      </trkpt>
      <trkpt lat="44.173498" lon="5.27712">
        <ele>1860.9</ele>
      </trkpt>
      <trkpt lat="44.173508" lon="5.277238">
        <ele>1862.86</ele>
      </trkpt>
      <trkpt lat="44.173517" lon="5.277393">
        <ele>1865.37</ele>
      </trkpt>
      <trkpt lat="44.173499" lon="5.278173">
        <ele>1869.44</ele>
      </trkpt>
    </trkseg>
  </trk>
</gpx>
